feature_id,description,worldview,iso_3166_1,sovereign_iso_3166_1,iso_3166_1_alpha_3,wikidata_id,centroid,bounds,area_sqkm,region,subregion,name,name_en,disputed,color_group,names
11145394,state,IN,PK,,PAK,Q843,"(2:70.1995,30.5986)","(4:60.8738,23.7046,75.3843,36.9115)",906726,Asia,Southern Asia,پاكِستان - Pakistan,Pakistan,FALSE,2,"{ ""en"": [ ""Pakistan"", ""🇵🇰"", ""pk"", ""Islamic Republic of Pakistan"" ], ""ps"": [ ""پاکستان"" ], ""sd"": [ ""پاڪستان"", ""اسلامي جمھوريہ پاڪستان"" ], ""ur"": [ ""پاکستان"", ""اسلامی جمہوریہ پاکستان"" ], ""pnb"": [ ""پاکستان"" ] }"
2494581,state,all,KH,,KHM,Q424,"(2:105.133,12.558)","(4:102.3341,10.3531,107.6316,14.69)",187279,Asia,South-eastern Asia,Cambodia,Cambodia,FALSE,6,"{ ""en"": [ ""Cambodia"", ""Kingdom of Cambodia"", ""kh"", ""🇰🇭"", ""Kampuchea"", ""Camboya"", ""Campuchia"", ""Kamboja"", ""Kambodzha"" ], ""km"": [ ""កម្ពុជា"", ""ព្រះរាជាណាចក្រកម្ពុជា"" ] }"
2363413,state,all,BF,,BFA,Q965,"(2:-1.1849,12.2601)","(4:-5.5119,9.408799999999999,2.4048,15.0855)",281258,Africa,Sub-Saharan Africa,Burkina Faso,Burkina Faso,FALSE,2,"{ ""en"": [ ""Burkina Faso"", ""bf"", ""🇧🇫"" ], ""fr"": [ ""Burkina Faso"", ""Burkina"" ] }"
13635833,state,all,ZA,,ZAF,Q258,"(2:23.9312,-28.6718)","(4:16.4519,-34.8341,32.8941,-22.125)",1408737,Africa,Sub-Saharan Africa,South Africa,South Africa,FALSE,2,"{ ""af"": [ ""Suid-Afrika"", ""Republiek van Suid-Afrika"" ], ""en"": [ ""South Africa"", ""Republic of South Africa"", ""RSA"", ""SA"", ""za"", ""🇿🇦"" ], ""xh"": [ ""UMzantsi Afrika"", ""IRiphabliki yaseMzantsi Afrika"" ], ""zu"": [ ""IRiphabliki yaseNingizimu Afrika"" ] }"
12783820,state,all,SM,,SMR,Q238,"(2:12.4611,43.942)","(4:12.4038,43.8938,12.5161,43.9919)",84,Europe,Southern Europe,San Marino,San Marino,FALSE,2,"{ ""en"": [ ""San Marino"", ""sm"", ""🇸🇲"", ""Most Serene Republic of San Marino"", ""SMR"" ], ""it"": [ ""San Marino"", ""Serenissima Repubblica di San Marino"", ""Repubblica di San Marino"" ] }"
1118708,disputed area,JP,D0CNIN3,,,,"(2:79.3519,32.8792)","(4:79.1397,32.5191,79.5613,33.2379)",1768,,,Demchok disputed area,Demchok disputed area,TRUE,,
1905140,disputed area,JP,D0KESS4,,,,"(2:35.7462,4.6551)","(4:35.703,4.6247,35.7813,4.6854)",47,,,Ilemi Triangle,Ilemi Triangle,TRUE,,
2429428,disputed area,JP,D0CNTW1,,,,"(2:116.7287,20.7035)","(4:116.7069,20.6972,116.7349,20.7097)",1,,,Pratas Island,Pratas Island,TRUE,,
1053172,disputed area,US,D0CNIN2,,,,"(2:79.1217,34.697)","(4:77.9097,33.3858,80.4217,35.9879)",37463,,,Aksai Chin disputed area,Aksai Chin disputed area,TRUE,,
2036212,disputed area,JP,D0INNP1,,,,"(2:80.7744,30.3206)","(4:80.5254,30.1691,81.04519999999999,30.4716)",468,,,Kalapani-Lympiadhura disputed area,Kalapani-Lympiadhura disputed area,TRUE,,
13832400,state,US,SS,,SSD,Q958,"(2:29.1116,7.8795)","(4:24.1507,3.4803,35.9353,12.2322)",636626,Africa,Sub-Saharan Africa,South Sudan,South Sudan,FALSE,1,"{ ""ar"": [ ""جنوب السودان"", ""جمهورية جنوب السودان"", ""قائمة جزر جنوب السودان"", ""بانتيو (مدينة)"", ""يامبيو (مدينة)"", ""رمبيك (مدينة)"", ""أويل (مدينة)"", ""اويل"", ""جوبا (مدينة)"", ""ملكال (مدينة)"", ""كودوك"", ""فاشودا"", ""فاشودة"", ""ياي"", ""عاصمة جنوب السودان"" ], ""en"": [ ""South Sudan"", ""Republic of South Sudan"", ""Southern Sudan"", ""ss"", ""🇸🇸"", ""SSD"" ] }"
11931835,state,all,QA,,QAT,Q846,"(2:51.1522,25.3174)","(4:50.7501,24.4701,51.6622,26.1833)",12848,Asia,Western Asia,قطر,Qatar,FALSE,3,"{ ""ar"": [ ""قطر"", ""دولة قطر"" ], ""en"": [ ""Qatar"", ""qa"", ""State of Qatar"", ""🇶🇦"" ], ""fa"": [ ""قطر"" ] }"
11145394,state,JP,PK,,PAK,Q843,"(2:70.2714,30.6947)","(4:60.8738,23.7046,77.1204,37.0919)",1007923,Asia,Southern Asia,پاكِستان - Pakistan,Pakistan,FALSE,2,"{ ""en"": [ ""Pakistan"", ""🇵🇰"", ""pk"", ""Islamic Republic of Pakistan"" ], ""ps"": [ ""پاکستان"" ], ""sd"": [ ""پاڪستان"", ""اسلامي جمھوريہ پاڪستان"" ], ""ur"": [ ""پاکستان"", ""اسلامی جمہوریہ پاکستان"" ], ""pnb"": [ ""پاکستان"" ] }"
13963394,state,all,LK,,LKA,Q854,"(2:80.6383,7.8836)","(4:79.65049999999999,5.9216,81.8789,9.835800000000001)",66658,Asia,Southern Asia,Sri Lanka,Sri Lanka,FALSE,3,"{ ""en"": [ ""Sri Lanka"", ""Democratic Socialist Republic of Sri Lanka"", ""Ceylon"", ""Taprobane"", ""Serendib"", ""Ceylan"", ""🇱🇰"", ""lk"", ""Lanka, Sri"", ""sri"", ""lke"", ""ce"", ""Srilanka"", ""SRI"" ], ""si"": [ ""ශ්‍රී ලංකාව"", ""ලංකාව"" ], ""ta"": [ ""இலங்கை"", ""இலங்கை சனநாயக சோசலிசக் குடியரசு"", ""ஈழம்"", ""இலங்கை சனநாயக சோஷலிசக் குடியரசு"" ] }"
1904675,state,all,BW,,BWA,Q963,"(2:24.4745,-22.4181)","(4:19.998,-26.9073,29.3714,-17.7782)",627274,Africa,Sub-Saharan Africa,Botswana,Botswana,FALSE,6,"{ ""en"": [ ""Botswana"", ""Republic of Botswana"", ""Lefatshe la Botswana"", ""bw"", ""🇧🇼"", ""BOT"" ], ""tn"": [ ""Botswana"" ] }"
14422228,state,all,SY,,SYR,Q858,"(2:38.5585,34.8522)","(4:35.7167,32.3116,42.3764,37.3188)",228968,Asia,Western Asia,سورية,Syria,FALSE,2,"{ ""ar"": [ ""سوريا"", ""سورية"", ""الجمهورية العربية السورية"", ""الجمهوريّة العربيّة السّوريّة"" ], ""en"": [ ""Syria"", ""sy"", ""🇸🇾"", ""Syrian Arab Republic"", ""SYR"" ] }"
14028996,state,all,SD,,SDN,Q1049,"(2:29.7844,15.4506)","(4:21.8143,8.683,38.8492,22.0065)",1953663,Africa,Northern Africa,السودان,Sudan,FALSE,2,"{ ""ar"": [ ""السودان"", ""جمهورية السودان"" ], ""en"": [ ""Sudan"", ""Republic of the Sudan"", ""as-Sūdān"", ""sd"", ""North Sudan"", ""the Sudan"", ""🇸🇩"", ""Republic of Sudan"", ""SUD"" ] }"
8786062,state,all,MG,,MDG,Q1019,"(2:46.6872,-18.9175)","(4:43.1885,-25.6062,50.4861,-11.9488)",634137,Africa,Sub-Saharan Africa,Madagascar,Madagascar,FALSE,6,"{ ""en"": [ ""Madagascar"", ""mg"", ""🇲🇬"", ""Republic of Madagascar"", ""MAD"" ], ""fr"": [ ""Madagascar"" ], ""mg"": [ ""Madagasikara"", ""Repoblikan'i Madagasikara"" ] }"
4198458,state,all,DJ,,DJI,Q977,"(2:42.5037,11.8131)","(4:41.7719,10.9157,43.4537,12.7067)",22281,Africa,Sub-Saharan Africa,Djibouti,Djibouti,FALSE,1,"{ ""en"": [ ""Djibouti"", ""Republic of Djibouti"", ""Jabuuti"", ""Gabuuti"", ""Jībūtī"", ""dj"", ""🇩🇯"", ""DJI"" ], ""so"": [ ""Jabuuti"" ] }"
7344238,state,all,IT,,ITA,Q38,"(2:12.5138,42.6725)","(4:6.6266,35.493,18.5205,47.0919)",412408,Europe,Southern Europe,Italia,Italy,FALSE,6,"{ ""de"": [ ""Italien"", ""Italienische Republik"" ], ""en"": [ ""Italy"", ""Italia"", ""Italian Republic"", ""IT"", ""it"", ""🇮🇹"", ""ITA"" ], ""fr"": [ ""Italie"", ""République Italienne"", ""Italia"", ""IT"", ""ITA"" ], ""it"": [ ""Italia"", ""ITA"", ""IT"", ""Repubblica italiana"", ""it"", ""🇮🇹"" ] }"
2232820,disputed area,CN,D0INNP2,,,,"(2:83.8659,27.3922)","(4:83.8167,27.3464,83.9084,27.438)",37,,,Susta disputed area,Susta disputed area,TRUE,,
14618853,state,all,TZ,,TZA,Q924,"(2:34.2541,-6.4017)","(4:29.3908,-11.7613,40.4451,-0.9853)",954271,Africa,Sub-Saharan Africa,Tanzania,Tanzania,FALSE,3,"{ ""en"": [ ""Tanzania"", ""United Republic of Tanzania"", ""tz"", ""🇹🇿"", ""United Republic of Tanganyika and Zanzibar"" ], ""sw"": [ ""Tanzania"", ""Jamhuri ya Muungano wa Tanzania"" ] }"
2429428,disputed area,US,D0CNTW1,,,,"(2:116.7287,20.7035)","(4:116.7069,20.6972,116.7349,20.7097)",1,,,Pratas Island,Pratas Island,TRUE,,
791028,disputed area,US,D0CNIN9,,,,"(2:80.02800000000001,30.7827)","(4:79.69880000000001,30.5589,80.24930000000001,31.0058)",942,,,Lapthal-Bara Hoti disputed area,Lapthal-Bara Hoti disputed area,TRUE,,
1642996,disputed area,CN,D0GFSR1,,,,"(2:-54.1343,2.7239)","(4:-54.6024,2.1443,-53.9703,3.3029)",3444,,,French Guiana–Suriname disputed area,French Guiana–Suriname disputed area,TRUE,,
2363892,disputed area,US,D0CNTWVN1,,,,"(2:111.7015,16.2212)","(4:111.1905,15.7749,112.7456,17.1141)",489,,,Paracel Islands,Paracel Islands,TRUE,,
2232348,state,all,BN,,BRN,Q921,"(2:114.5238,4.5256)","(4:114.0758,4.0023,115.3634,5.0459)",5898,Asia,South-eastern Asia,Brunei Darussalam بروني دارالسلام,Brunei,FALSE,4,"{ ""en"": [ ""Brunei"", ""Nation of Brunei, the Abode of Peace"", ""bn"", ""Brunei Darussalam"", ""🇧🇳"", ""BRN"", ""BRU"" ], ""ms"": [ ""Brunei"", ""Negara Brunei Darussalam"", ""Brunei Darussalam"" ], ""zh-hant"": [ ""汶萊"", ""汶萊和平之國"", ""汶萊達魯薩蘭國"" ] }"
10096786,state,all,MM,,MMR,Q836,"(2:95.9058,19.5274)","(4:92.1721,9.597899999999999,101.1703,28.5484)",731508,Asia,South-eastern Asia,မြန်မာ,Myanmar,FALSE,2,"{ ""en"": [ ""Myanmar"", ""Burma"", ""Republic of the Union of Myanmar"", ""Union of Burma"", ""MM"", ""🇲🇲"", ""BUR"", ""MYA"" ], ""my"": [ ""မြန်မာနိုင်ငံ"", ""ပြည်ထောင်စု သမ္မတ မြန်မာနိုင်ငံတော်"", ""Burma"" ] }"
12325063,dependent territory,all,SH,UK,SHN,Q34497,"(2:-12.2823,-37.1159)","(4:-14.421,-40.3714,-5.6341,-7.8892)",428,Africa,Sub-Saharan Africa,"Saint Helena, Ascension and Tristan da Cunha","Saint Helena, Ascension and Tristan da Cunha",FALSE,6,"{ ""en"": [ ""Saint Helena"", ""St Helena"" ] }"
8917150,state,all,MY,,MYS,Q833,"(2:114.6579,3.9511)","(4:99.6407,0.8546,119.2697,7.3806)",333082,Asia,South-eastern Asia,Malaysia,Malaysia,FALSE,2,"{ ""en"": [ ""Malaysia"", ""my"", ""🇲🇾"", ""Federation of Malaysia"", ""Malaysia Federation"", ""MAS"" ], ""ms"": [ ""Malaysia"", ""مليسيا"", ""Persekutuan Malaysia"", ""ڤرسکوتوان مليسيا"" ], ""zh-hant"": [ ""馬來西亞"" ] }"
4591704,state,all,GQ,,GNQ,Q983,"(2:10.4695,1.6342)","(4:5.5989,-1.4676,11.3654,3.7887)",27152,Africa,Sub-Saharan Africa,Guinée équatoriale - Guinea Ecuatorial · Guiné Equatorial,Equatorial Guinea,FALSE,4,"{ ""en"": [ ""Equatorial Guinea"", ""Republic of Equatorial Guinea"", ""gq"", ""🇬🇶"", ""GEQ"" ], ""es"": [ ""Guinea Ecuatorial"", ""República de Guinea Ecuatorial"", ""Republica de Guinea Ecuatorial"" ] }"
14225621,state,all,SZ,,SWZ,Q1050,"(2:31.4607,-26.5203)","(4:30.7908,-27.3175,32.1322,-25.7188)",19452,Africa,Sub-Saharan Africa,eSwatini,Eswatini,FALSE,3,"{ ""en"": [ ""Eswatini"", ""Umbuso weSwatini"", ""eSwatini"", ""🇸🇿"", ""Kingdom of Swaziland"", ""sz"", ""Swaziland"", ""Kingdom of Eswatini"", ""SWZ"" ], ""ss"": [ ""Umbuso weSwatini"" ] }"
6754404,state,all,HU,,HUN,Q28,"(2:19.1493,47.1813)","(4:16.1141,45.7372,22.8974,48.5854)",136736,Europe,Eastern Europe,Magyarország,Hungary,FALSE,4,"{ ""de"": [ ""Ungarn"" ], ""en"": [ ""Hungary"", ""hu"", ""🇭🇺"", ""HUN"" ], ""hu"": [ ""Magyarország"", ""Mo."", ""hu"", ""🇭🇺"", ""harmadik magyar köztársaság"", ""Magyar Köztársaság"" ] }"
1773598,state,all,BQ,,BES,Q27561,"(2:-68.2465,12.1671)","(4:-68.4207,12.0243,-62.9459,17.6501)",325,Americas,Latin America and the Caribbean,"Bonaire, Sint Eustatius and Saba","Bonaire, Sint Eustatius and Saba",FALSE,4,"{ ""en"": [ ""Caribbean Netherlands"", ""BES islands"", ""🇧🇶"" ] }"
4722752,state,all,EE,,EST,Q191,"(2:25.3668,58.6092)","(4:21.7643,57.5093,28.2099,59.822)",84155,Europe,Northern Europe,Eesti,Estonia,FALSE,3,"{ ""en"": [ ""Estonia"", ""Republic of Estonia"", ""Estland"", ""Eesti"", ""ee"", ""EST"", ""🇪🇪"" ], ""et"": [ ""Eesti"", ""Eesti Vabariik"" ], ""fi"": [ ""Viro"", ""Eesti"", ""Viron tasavalta"" ], ""ru"": [ ""Эстония"", ""Эстонская Республика"", ""Республика Эстония"", ""Ээсти"" ] }"
14946528,state,all,TO,,TON,Q678,"(2:-175.2735,-21.168)","(4:-176.2137,-22.3497,-173.7351,-15.5659)",808,Oceania,Polynesia,Tonga,Tonga,FALSE,2,"{ ""en"": [ ""Tonga"", ""🇹🇴"", ""to"", ""Kingdom of Tonga"", ""TGA"" ], ""to"": [ ""Tonga"" ] }"
7475312,state,all,JM,,JAM,Q766,"(2:-77.1598,18.1156)","(4:-78.3687,17.7057,-76.1824,18.5249)",11611,Americas,Latin America and the Caribbean,Jamaica,Jamaica,FALSE,1,"{ ""en"": [ ""Jamaica"", ""JA"", ""Commonwealth of Jamaica"", ""Jamdung"", ""jm"", ""🇯🇲"", ""JAM"" ], ""jam"": [ ""Jumieka"" ] }"
15143137,state,all,TR,,TUR,Q43,"(2:35.5135,39.0251)","(4:25.6652,35.8129,44.8264,42.1046)",1007665,Asia,Western Asia,Türkiye,Turkey,FALSE,6,"{ ""en"": [ ""Turkey"", ""Republic of Turkey"", ""tr"", ""🇹🇷"", ""TUR"" ], ""tr"": [ ""Türkiye"", ""Türkiye Cumhuriyeti"", ""T.C."", ""TC"", ""tr"", ""🇹🇷"" ] }"
5378124,state,all,GA,,GAB,Q1000,"(2:11.6604,-0.8204)","(4:8.6991,-3.956,14.5281,2.318)",265120,Africa,Sub-Saharan Africa,Gabon,Gabon,FALSE,6,"{ ""en"": [ ""Gabon"", ""Gabonese Republic"", ""République Gabonaise"", ""ga"", ""🇬🇦"", ""Republique Gabonaise"", ""GAB"" ], ""fr"": [ ""Gabon"", ""République gabonaise"" ] }"
12128447,state,all,RU,,RUS,Q159,"(2:110.0304,65.09690000000001)","(4:-180,41.1853,180,81.8574)",34911957,Europe,Eastern Europe,Россия,Russia,FALSE,2,"{ ""en"": [ ""Russia"", ""Rossiya"", ""Rossija"", ""RU"", ""ru"", ""Rossijskaja Federatsija"", ""Russian Federation"", ""Rossiyskaya Federatsiya"", ""Rus"", ""RUS"" ], ""ru"": [ ""Россия"", ""Российская Федерация"", ""РФ"", ""Русь"" ] }"
66064479,state,US,HK,,HKG,Q8646,"(2:114.0599,22.4114)","(4:113.8351,22.1539,114.4417,22.562)",1214,Asia,Eastern Asia,香港,Hong Kong,FALSE,4,"{ ""en"": [ ""Hong Kong"", ""HKSAR"", ""HKG"", ""HK"", ""Hong Kong SAR"", ""China Hong Kong"", ""Hong Kong, China"", ""hk"", ""Hong Kong SAR, China"", ""🇭🇰"", ""Hong Kong Special Administrative Region"" ], ""yue"": [ ""香港"", ""香港特別行政區"", ""香港特區"", ""中國香港"" ], ""zh-hant"": [ ""香港"", ""香港特別行政區"", ""香港特區"", ""中國香港"" ] }"
16584881,state,all,PH,,PHL,Q928,"(2:120.7409,15.6149)","(4:116.9283,4.5869,126.6053,21.0701)",300397,Asia,South-eastern Asia,Philippines,Philippines,FALSE,3,"{ ""en"": [ ""Philippines"", ""Republic of the Philippines"", ""PH"", ""ph"", ""the Philippines"", ""Philippine Islands"", ""PHL"", ""RP"", ""🇵🇭"", ""PHI"" ], ""es"": [ ""Filipinas"", ""República de Filipinas"", ""Republica de Filipinas"" ], ""ceb"": [ ""Pilipinas"", ""Republika sa Pilipinas"" ] }"
1642529,state,JP,BT,,BTN,Q917,"(2:90.3415,27.473)","(4:88.7683,26.6948,92.124,28.2458)",43846,Asia,Southern Asia,འབྲུགཡུལ་,Bhutan,FALSE,5,"{ ""dz"": [ ""འབྲུག་ཡུལ་"", ""འབྲུགཡུལ་་"" ], ""en"": [ ""Bhutan"", ""Kingdom of Bhutan"", ""bt"", ""🇧🇹"", ""BHU"" ], ""ne"": [ ""भुटान"" ] }"
66064479,state,JP,HK,,HKG,Q8646,"(2:114.0599,22.4114)","(4:113.8351,22.1539,114.4417,22.562)",1214,Asia,Eastern Asia,香港,Hong Kong,FALSE,4,"{ ""en"": [ ""Hong Kong"", ""HKSAR"", ""HKG"", ""HK"", ""Hong Kong SAR"", ""China Hong Kong"", ""Hong Kong, China"", ""hk"", ""Hong Kong SAR, China"", ""🇭🇰"", ""Hong Kong Special Administrative Region"" ], ""yue"": [ ""香港"", ""香港特別行政區"", ""香港特區"", ""中國香港"" ], ""zh-hant"": [ ""香港"", ""香港特別行政區"", ""香港特區"", ""中國香港"" ] }"
6295638,state,all,GN,,GIN,Q1006,"(2:-9.662000000000001,9.945)","(4:-15.0761,7.1905,-7.6374,12.6756)",251048,Africa,Sub-Saharan Africa,Guinée,Guinea,FALSE,6,"{ ""en"": [ ""Guinea"", ""Guinea-Conakry"", ""Republic of Guinea"", ""République de Guinée"", ""gn"", ""🇬🇳"", ""Republique de Guinee"", ""GUI"" ], ""ff"": [ ""Gine"" ], ""fr"": [ ""Guinée"", ""Guinée-Conakry"", ""République de Guinée"" ] }"
10883193,state,all,KP,,PRK,Q423,"(2:126.8405,40.3963)","(4:124.1813,37.6769,130.6998,43.009)",160141,Asia,Eastern Asia,북조선,North Korea,FALSE,3,"{ ""en"": [ ""North Korea"", ""🇰🇵"", ""Democratic People's Republic of Korea"", ""DPRK"", ""PRK"", ""kp"", ""Dem. Rep. Korea"", ""N. Korea"" ], ""ko"": [ ""조선민주주의인민공화국"", ""공화국"", ""조선"" ] }"
3084336,state,CN,CN,,CHN,Q148,"(2:100.5057,38.8017)","(4:73.5013,7.3643,134.7734,53.5604)",11717970,Asia,Eastern Asia,中国,China,FALSE,4,"{ ""en"": [ ""People's Republic of China"", ""China"", ""CN"", ""PR China"", ""PRC"", ""cn"", ""CHN"", ""Communist China"", ""🇨🇳"" ], ""zh"": [ ""中华人民共和国"", ""中国"", ""中國"", ""中華人民共和國"", ""共产中国"", ""新中国"", ""中華人民共和國／中华人民共和国"", ""中"" ] }"
66130068,state,US,MO,,MAC,Q14773,"(2:113.5643,22.1404)","(4:113.5287,22.1097,113.5983,22.217)",34,Asia,Eastern Asia,澳门,Macau,FALSE,4,"{ ""en"": [ ""Macau"", ""Macao"", ""Macau Special Administrative Region"", ""Macau Special Administrative Region of the People's Republic of China"", ""Aomen"", ""mo"", ""Macao Special Administrative Region"", ""Macao Special Administrative Region of the People's Republic of China"", ""Macau SAR"", ""Macau SAR, China"", ""Macao SAR"", ""Macao SAR, China"", ""🇲🇴"" ], ""zh-hant"": [ ""澳門"", ""澳門特別行政區"", ""馬交"" ] }"
5902420,state,all,GL,,GRL,Q223,"(2:-40.4109,76.068)","(4:-73.26349999999999,59.7773,-11.3123,83.62739999999999)",8511107,Americas,Northern America,Kalaallit Nunaat,Greenland,FALSE,4,"{ ""da"": [ ""Grønland"" ], ""en"": [ ""Greenland"", ""gl"", ""🇬🇱"" ], ""kl"": [ ""Kalaallit Nunaat"" ] }"
11014311,state,all,NO,,NOR,Q20,"(2:13.6065,65.3651)","(4:4.4976,57.9599,31.1681,71.1855)",745444,Europe,Northern Europe,Norge,Norway,FALSE,5,"{ ""en"": [ ""Norway"", ""Kingdom of Norway"", ""Norge"", ""Norvège‏"", ""NO"", ""NOR"", ""no"", ""Noreg"", ""🇳🇴"", ""Norwegen‏"" ], ""nb"": [ ""Norge"", ""Kongeriket Norge"", ""Noreg"", ""Kongeriket Norge\/Noreg"" ], ""nn"": [ ""Noreg"", ""Kongeriket Noreg"", ""Norge"" ] }"
16519419,state,all,ZW,,ZWE,Q954,"(2:29.4113,-19.0547)","(4:25.2374,-22.422,33.054,-15.6099)",415447,Africa,Sub-Saharan Africa,Zimbabwe,Zimbabwe,FALSE,1,"{ ""en"": [ ""Zimbabwe"", ""Republic of Zimbabwe"", ""Southern Rhodesia"", ""Rhodesia"", ""Zimbabwe Rhodesia"", ""🇿🇼"", ""zw"", ""ZIM"" ], ""sn"": [ ""Zimbabwe"" ] }"
8327300,state,all,LS,,LSO,Q1013,"(2:28.1745,-29.6285)","(4:27.0113,-30.6755,29.4557,-28.5708)",35232,Africa,Sub-Saharan Africa,Lesotho,Lesotho,FALSE,1,"{ ""en"": [ ""Lesotho"", ""Kingdom of Lesotho"", ""ls"", ""🇱🇸"", ""LES"" ], ""st"": [ ""Lesotho"", ""Mmuso wa Lesotho"" ], ""zu"": [ ""OSotho"" ] }"
14094543,state,all,SR,,SUR,Q730,"(2:-56.1089,3.923)","(4:-58.0547,1.834,-53.9802,6.0088)",146569,Americas,Latin America and the Caribbean,Suriname,Suriname,FALSE,1,"{ ""en"": [ ""Suriname"", ""Surinam"", ""Republic of Suriname"", ""Republic of Surinam"", ""Dutch Guiana"", ""sr"", ""🇸🇷"", ""SUR"" ], ""nl"": [ ""Suriname"", ""Republiek Suriname"", ""SR"", ""SUR"" ], ""srn"": [ ""Sranankondre"" ] }"
10424481,state,all,NC,,NCL,Q33788,"(2:165.2478,-21.24)","(4:158.2487,-22.848,172.09,-18.0264)",20324,Oceania,Melanesia,Nouvelle-Calédonie,New Caledonia,FALSE,7,"{ ""en"": [ ""New Caledonia"", ""nc"", ""🇳🇨"", ""Nouvelle-Calédonie"" ], ""fr"": [ ""Nouvelle-Calédonie"", ""La nouvelle caledonie"", ""Nouvelle caledonie"", ""Nouvelle Calédonie"", ""Nouvelle-Caledonie"", ""New Caledonia"", ""988"" ] }"
1446388,disputed area,IN,D0BTCN2,,,,"(2:89.0081,27.5135)","(4:88.9483,27.3998,89.1622,27.6271)",187,,,Doklam Plateau,Doklam Plateau,TRUE,,
463348,disputed area,all,D0BRUY1,,,,"(2:-55.9486,-30.9757)","(4:-56.0185,-31.0871,-55.8127,-30.8647)",290,,,Rincón de Artigas,Rincón de Artigas,TRUE,,
1249780,disputed area,US,D0CNIN5,,,,"(2:78.6045,32.6215)","(4:78.5668,32.6004,78.64109999999999,32.6423)",25,,,Chumar disputed area,Chumar disputed area,TRUE,,
2036212,disputed area,US,D0INNP1,,,,"(2:80.7744,30.3206)","(4:80.5254,30.1691,81.04519999999999,30.4716)",468,,,Kalapani-Lympiadhura disputed area,Kalapani-Lympiadhura disputed area,TRUE,,
9703562,state,all,MC,,MCO,Q235,"(2:7.4243,43.7384)","(4:7.409,43.7246,7.44,43.7519)",2,Europe,Western Europe,Monaco,Monaco,FALSE,1,"{ ""en"": [ ""Monaco"", ""Principality of Monaco"", ""mc"", ""🇲🇨"", ""MON"" ], ""fr"": [ ""Monaco"", ""Principauté de Monaco"", ""MON"", ""mc"" ] }"
1970676,disputed area,IN,D0ILPS1,,,,"(2:35.2419,31.7959)","(4:35.1507,31.7092,35.2654,31.8829)",83,,,East Jerusalem,East Jerusalem,TRUE,,
66130068,state,IN,MO,,MAC,Q14773,"(2:113.5643,22.1404)","(4:113.5287,22.1097,113.5983,22.217)",34,Asia,Eastern Asia,澳门,Macau,FALSE,4,"{ ""en"": [ ""Macau"", ""Macao"", ""Macau Special Administrative Region"", ""Macau Special Administrative Region of the People's Republic of China"", ""Aomen"", ""mo"", ""Macao Special Administrative Region"", ""Macao Special Administrative Region of the People's Republic of China"", ""Macau SAR"", ""Macau SAR, China"", ""Macao SAR"", ""Macao SAR, China"", ""🇲🇴"" ], ""zh-hant"": [ ""澳門"", ""澳門特別行政區"", ""馬交"" ] }"
16650295,state,all,CY,,CYP,Q229,"(2:33.3986,35.1661)","(4:32.2692,34.6323,34.6066,35.7109)",10996,Asia,Western Asia,Κύπρος,Cyprus,FALSE,1,"{ ""el"": [ ""Κύπρος"", ""Κυπριακή Δημοκρατία"" ], ""en"": [ ""Cyprus"", ""Republic of Cyprus"", ""cy"", ""🇨🇾"" ], ""tr"": [ ""Kıbrıs Cumhuriyeti"", ""Kıbrıs"" ] }"
12587188,dependent territory,all,PM,FR,SPM,Q34617,"(2:-56.3267,46.9642)","(4:-56.406,46.7489,-56.1266,47.145)",331,Americas,Northern America,Saint-Pierre-et-Miquelon,Saint Pierre and Miquelon,FALSE,7,"{ ""en"": [ ""Saint Pierre and Miquelon"", ""Saint-Pierre-et-Miquelon"", ""Saint-Pierre et Miquelon"", ""pm"", ""St. Pierre and Miquelon"", ""St Pierre and Miquelon"", ""🇵🇲"" ], ""fr"": [ ""Saint-Pierre-et-Miquelon"", ""Îles Saint-Pierre-et-Miquelon"", ""975"" ] }"
1970210,state,all,BV,,BVT,Q23408,"(2:3.3595,-54.4197)","(4:3.2845,-54.4549,3.4333,-54.3864)",86,Americas,Latin America and the Caribbean,Bouvet Island,Bouvet Island,FALSE,5,"{ ""en"": [ ""Bouvet Island"", ""bv"", ""🇧🇻"", ""Bouvetøya"" ] }"
528884,disputed area,US,D0BTCN1,,,,"(2:90.2383,28.2113)","(4:89.8182,28.0606,90.61490000000001,28.3608)",1440,,,Kula Kangri,Kula Kangri,TRUE,,
1183763,state,all,BD,,BGD,Q902,"(2:89.8601,23.7235)","(4:88.0004,20.5751,92.6795,26.6395)",155617,Asia,Southern Asia,বাংলাদেশ,Bangladesh,FALSE,3,"{ ""bn"": [ ""বাংলাদেশ"", ""গণপ্রজাতন্ত্রী বাংলাদেশ"", ""bd"" ], ""en"": [ ""Bangladesh"", ""bd"", ""🇧🇩"", ""BAN"" ] }"
5640274,state,all,GH,,GHA,Q117,"(2:-1.0593,7.9674)","(4:-3.2551,4.7392,1.2001,11.1683)",242806,Africa,Sub-Saharan Africa,Ghana,Ghana,FALSE,5,"{ ""ak"": [ ""Ghana"" ], ""ee"": [ ""Ghana"" ], ""en"": [ ""Ghana"", ""Republic of Ghana"", ""🇬🇭"", ""gh"", ""GHA"" ] }"
922100,disputed area,US,D0CNIN8,,,,"(2:79.1259,31.2045)","(4:78.8826,30.9496,79.4173,31.459)",1714,,,Jadh-Nelang disputed area,Jadh-Nelang disputed area,TRUE,,
14160073,dependent territory,all,SJ,NO,SJM,Q25231,"(2:18.5821,78.4378)","(4:-9.086399999999999,70.8278,37.0668,80.8212)",336616,Europe,Northern Europe,Svalbard and Jan Mayen,Svalbard and Jan Mayen,FALSE,5,"{ ""en"": [ ""Svalbard"", ""Svaldbard"", ""Spitsburgen"", ""Svalbard Archipelago"", ""Svaalbard"", ""Svalbard Islands"", ""Sval'bard"", ""Spitzburgen"", ""Svalbard Island"", ""Spitzbergen"" ], ""nb"": [ ""Svalbard"", ""Svalbardianer"", ""Svalbardianar"" ], ""ru"": [ ""Шпицберген"", ""Свалбард"", ""Свальбард"", ""Грумант"" ] }"
10555557,state,all,NI,,NIC,Q811,"(2:-85.5806,12.8787)","(4:-87.69029999999999,10.7094,-82.7346,15.0294)",132107,Americas,Latin America and the Caribbean,Nicaragua,Nicaragua,FALSE,1,"{ ""en"": [ ""Nicaragua"", ""ni"", ""🇳🇮"", ""Republic of Nicaragua"", ""NIC"", ""NI"", ""NCA"" ], ""es"": [ ""Nicaragua"", ""República de Nicaragua"", ""Republica de Nicaragua"", ""Salve a ti, Nicaragua"" ] }"
397812,disputed area,US,D0GYSR1,,,,"(2:-57.3612,2.4457)","(4:-58.3309,1.4976,-56.4851,3.3943)",14492,,,Tigri Area,Tigri Area,TRUE,,
14487780,state,US,TW,,TWN,Q865,"(2:120.8354,23.609)","(4:114.3593,10.3713,122.1091,26.3853)",40091,Asia,Eastern Asia,台灣,Taiwan,FALSE,1,"{ ""en"": [ ""Taiwan"", ""ROC"", ""Chunghwa Minkwo"", ""Chunghwa Minkuo"", ""Formosa"", ""Republic of China"", ""Nationalist China"", ""Free China"", ""Free area of the Republic of China"", ""Republic of China (Taiwan)"", ""Chinese Taipei"", ""🇹🇼"", ""tw"" ], ""zh-hant"": [ ""中華民國"", ""自由中國"", ""臺灣"", ""臺澎金馬"", ""中華台北"", ""ROC"", ""台灣"", ""民國"", ""中華民國臺灣"" ] }"
856564,disputed area,JP,D0CNIN7,,,,"(2:78.791,31.3804)","(4:78.7495,31.294,78.86020000000001,31.4674)",106,,,Shipki Pass disputed area,Shipki Pass disputed area,TRUE,,
1446388,disputed area,JP,D0BTCN2,,,,"(2:89.0081,27.5135)","(4:88.9483,27.3998,89.1622,27.6271)",187,,,Doklam Plateau,Doklam Plateau,TRUE,,
3084336,state,IN,CN,,CHN,Q148,"(2:100.5057,38.8017)","(4:73.5013,7.3643,134.7734,53.5604)",11603523,Asia,Eastern Asia,中国,China,FALSE,4,"{ ""en"": [ ""People's Republic of China"", ""China"", ""CN"", ""PR China"", ""PRC"", ""cn"", ""CHN"", ""Communist China"", ""🇨🇳"" ], ""zh"": [ ""中华人民共和国"", ""中国"", ""中國"", ""中華人民共和國"", ""共产中国"", ""新中国"", ""中華人民共和國／中华人民共和国"", ""中"" ] }"
1511449,state,all,BJ,,BEN,Q962,"(2:2.283,9.333299999999999)","(4:0.7798,6.2347,3.8534,12.4092)",118068,Africa,Sub-Saharan Africa,Bénin,Benin,FALSE,1,"{ ""en"": [ ""Benin"", ""Republic of Benin"", ""Dahomey"", ""bj"", ""🇧🇯"", ""BEN"" ], ""fr"": [ ""Bénin"", ""La République du Bénin"" ] }"
8458376,state,all,LY,,LBY,Q1016,"(2:17.4446,26.5832)","(4:9.392300000000001,19.5087,25.1471,33.1669)",1835729,Africa,Northern Africa,ليبيا,Libya,FALSE,1,"{ ""ar"": [ ""ليبيا"", ""ليبية"", ""ليبي"", ""ليببيا"", ""الليبية"", ""الليبي"", ""الليبين"", ""الجمهورية الليبية"", ""دولة ليبيا"", ""لوبيا (دولة)"", ""لوبية (دولة)"", ""لوبيا (ليبيا)"", ""لوبية (ليبيا)"" ], ""en"": [ ""Libya"", ""State of Libya"", ""ly"", ""🇱🇾"", ""LBA"" ] }"
7934197,state,US,XK,,XKS,Q1246,"(2:20.9131,42.5637)","(4:20.0164,41.8511,21.7907,43.2681)",14823,Europe,Southern Europe,Kosovë - Косово,Kosovo,FALSE,2,"{ ""en"": [ ""Kosovo"", ""Republic of Kosovo"", ""XK"", ""KOS"", ""XKX"", ""KV"", ""🇽🇰"" ], ""sq"": [ ""Kosovë"", ""Republika e Kosovës"", ""RKS"", ""KS"", ""Kosova"" ] }"
10490027,state,all,NZ,,NZL,Q664,"(2:171.0074,-43.6656)","(4:-176.8931,-52.6088,178.8243,-34.1292)",352083,Oceania,Australia and New Zealand,New Zealand,New Zealand,FALSE,3,"{ ""en"": [ ""New Zealand"", ""NZ"", ""NZL"", ""Dominion of New Zealand"", ""Aotearoa"", ""nz"", ""🇳🇿"" ] }"
10031263,state,all,MZ,,MOZ,Q1029,"(2:34.3703,-18.8696)","(4:30.2167,-26.8681,40.8393,-10.4709)",826132,Africa,Sub-Saharan Africa,Mozambique,Mozambique,FALSE,4,"{ ""en"": [ ""Mozambique"", ""Moçambique"", ""República de Moçambique"", ""MZ"", ""MOZ"", ""mz"", ""🇲🇿"", ""Republic of Mozambique"" ], ""pt"": [ ""Moçambique"", ""República de Moçambique"", ""Republica de Mocambique"", ""Mocambique"" ] }"
10358950,state,all,NL,,NLD,Q55,"(2:5.5869,52.1287)","(4:3.3583,50.7502,7.2275,53.555)",57203,Europe,Western Europe,Nederland,Netherlands,FALSE,4,"{ ""de"": [ ""Niederlande"", ""Holland"", ""NL"", ""nl"" ], ""en"": [ ""Netherlands"", ""Holland"", ""the Netherlands"", ""NL"", ""NED"", ""Nederland"", ""nl"", ""🇳🇱"", ""Netherlands (after 1945)"" ], ""fr"": [ ""Pays-Bas"", ""Hollande"", ""NL"", ""nl"", ""Les Pays-Bas"", ""NED"", ""🇳🇱"" ], ""nl"": [ ""Nederland"", ""NL"", ""NED"", ""nl"", ""NLD"" ], ""nds"": [ ""Nedderlannen"" ] }"
1708532,disputed area,IN,D0KESS1,,,,"(2:35.3474,5.0562)","(4:34.4136,4.6246,35.9353,5.5039)",6286,,,Ilemi Triangle,Ilemi Triangle,TRUE,,
6885481,state,CN,IN,,IND,Q668,"(2:79.5556,22.5605)","(4:68.17449999999999,6.756,97.176,35.6733)",3403202,Asia,Southern Asia,India,India,FALSE,1,"{ ""en"": [ ""India"", ""Bharat"", ""Hindustan"", ""Bharatvarsh"", ""in"", ""IN"", ""Republic of India"", ""🇮🇳"", ""IND"" ], ""hi"": [ ""भारत"", ""हिंदुस्तान"", ""भारतवर्ष"", ""इंडिया"", ""भारत गणराज्य"", ""इण्डिया"", ""हिन्दोस्तान"", ""हिन्दुस्तान"", ""आर्यवर्त"" ] }"
13045950,state,CN,RS,,SRB,Q403,"(2:21.0101,44.2456)","(4:18.838,42.2357,23.006,46.1898)",108170,Europe,Southern Europe,Србија,Serbia,FALSE,3,"{ ""en"": [ ""Serbia"", ""🇷🇸"", ""Republic of Serbia"", ""Republika Srbija"", ""rs"", ""Srbija"", ""SRB"" ], ""sq"": [ ""Serbia"", ""Republika e Serbisë"" ], ""sr"": [ ""Србија"", ""Република Србија"", ""rs"", ""Republika Srbija"" ], ""sr-ec"": [ ""Србија"" ], ""sr-el"": [ ""Srbija"" ] }"
266251,dependent territory,all,AS,US,ASM,Q16641,"(2:-170.7511,-14.3018)","(4:-171.0902,-14.5488,-168.1432,-11.0478)",216,Oceania,Polynesia,American Samoa,American Samoa,FALSE,4,"{ ""en"": [ ""American Samoa"", ""as"", ""East Samoa"", ""Samoa (American)"", ""Territory of American Samoa"", ""🇦🇸"", ""U.S. Samoa"", ""US Samoa"", ""ASA"" ], ""sm"": [ ""Amerika Sāmoa"" ] }"
66130068,state,JP,MO,,MAC,Q14773,"(2:113.5643,22.1404)","(4:113.5287,22.1097,113.5983,22.217)",34,Asia,Eastern Asia,澳门,Macau,FALSE,4,"{ ""en"": [ ""Macau"", ""Macao"", ""Macau Special Administrative Region"", ""Macau Special Administrative Region of the People's Republic of China"", ""Aomen"", ""mo"", ""Macao Special Administrative Region"", ""Macao Special Administrative Region of the People's Republic of China"", ""Macau SAR"", ""Macau SAR, China"", ""Macao SAR"", ""Macao SAR, China"", ""🇲🇴"" ], ""zh-hant"": [ ""澳門"", ""澳門特別行政區"", ""馬交"" ] }"
6819949,state,all,IS,,ISL,Q189,"(2:-18.32,65.0123)","(4:-24.5327,63.2958,-13.4946,66.5664)",241784,Europe,Northern Europe,Ísland,Iceland,FALSE,1,"{ ""en"": [ ""Iceland"", ""Republic of Iceland"", ""is"", ""Island"", ""🇮🇸"", ""ISL"" ], ""is"": [ ""Ísland"", ""Lýðveldið Ísland"" ] }"
3084336,state,JP,CN,,CHN,Q148,"(2:100.5057,38.8017)","(4:73.5013,7.3643,134.7734,53.5604)",11649405,Asia,Eastern Asia,中国,China,FALSE,4,"{ ""en"": [ ""People's Republic of China"", ""China"", ""CN"", ""PR China"", ""PRC"", ""cn"", ""CHN"", ""Communist China"", ""🇨🇳"" ], ""zh"": [ ""中华人民共和国"", ""中国"", ""中國"", ""中華人民共和國"", ""共产中国"", ""新中国"", ""中華人民共和國／中华人民共和国"", ""中"" ] }"
987152,state,all,AZ,,AZE,Q227,"(2:47.7228,40.176)","(4:44.7645,38.3929,50.6248,41.913)",113049,Asia,Western Asia,Azərbaycan,Azerbaijan,FALSE,1,"{ ""az"": [ ""Azərbaycan"", ""Azərbaycan Respublikası"" ], ""en"": [ ""Azerbaijan"", ""Republic of Azerbaijan"", ""az"", ""🇦🇿"", ""AZE"" ] }"
2297878,state,all,BG,,BGR,Q219,"(2:25.195,42.7429)","(4:22.3564,41.2354,28.6119,44.2153)",151322,Europe,Eastern Europe,България,Bulgaria,FALSE,4,"{ ""bg"": [ ""България"", ""Република България"" ], ""en"": [ ""Bulgaria"", ""Republic of Bulgaria"", ""bg"", ""🇧🇬"", ""BUL"" ], ""ru"": [ ""Болгария"", ""България"", ""Республика Болгария"" ], ""tr"": [ ""Bulgaristan"", ""Bulgaristan Cumhuriyeti"" ] }"
15929579,state,all,UZ,,UZB,Q265,"(2:63.3577,41.5182)","(4:55.9742,37.1818,73.1521,45.5821)",605881,Asia,Central Asia,O’zbekiston,Uzbekistan,FALSE,2,"{ ""en"": [ ""Uzbekistan"", ""Republic of Uzbekistan"", ""uz"", ""🇺🇿"", ""UZB"" ], ""ru"": [ ""Узбекистан"", ""Республика Узбекистан"" ], ""uz"": [ ""Oʻzbekiston"", ""Oʻzbekiston Respublikasi"" ] }"
921612,state,all,AT,,AUT,Q40,"(2:14.7915,47.713)","(4:9.5307,46.3721,17.1584,49.0204)",124043,Europe,Western Europe,Österreich,Austria,FALSE,3,"{ ""de"": [ ""Österreich"", ""Republik Österreich"" ], ""en"": [ ""Austria"", ""Österreich"", ""Republic of Austria"", ""Republik Österreich"", ""AT"", ""at"", ""AUT"", ""🇦🇹"" ], ""fr"": [ ""Autriche"", ""AUT"" ], ""bar"": [ ""Östareich"" ] }"
10817699,state,all,NF,,NFK,Q31057,"(2:167.9588,-29.0289)","(4:167.9149,-29.1318,167.997,-28.9952)",43,Oceania,Australia and New Zealand,Norfolk Island,Norfolk Island,FALSE,1,"{ ""en"": [ ""Norfolk Island"", ""🇳🇫"", ""Norfolk Island, Other Territories, Australia"", ""Norfolk Island, Other Territories"" ] }"
13766778,state,all,KR,,KOR,Q884,"(2:127.9592,36.4849)","(4:124.6096,33.1121,131.873,38.6175)",124983,Asia,Eastern Asia,대한민국,South Korea,FALSE,4,"{ ""en"": [ ""South Korea"", ""Republic of Korea"", ""ROK"", ""Daehan Minguk"", ""The Republic of Great Han"", ""Republic of Great Han"", ""kr"", ""Rep. Korea"", ""S. Korea"", ""Korea Republic"", ""Republic of South Korea"", ""🇰🇷"", ""KOR"" ], ""ko"": [ ""대한민국"", ""한국"", ""남한"", ""남조선"", ""코리아"", ""대한"" ] }"
922100,disputed area,JP,D0CNIN8,,,,"(2:79.1259,31.2045)","(4:78.8826,30.9496,79.4173,31.459)",1714,,,Jadh-Nelang disputed area,Jadh-Nelang disputed area,TRUE,,
594420,disputed area,all,D0JPRU1,,,,"(2:147.8445,44.9901)","(4:145.3993,43.3607,148.9003,45.5493)",7154,,,Kuril Islands,Kuril Islands,TRUE,,
1446388,disputed area,US,D0BTCN2,,,,"(2:89.0081,27.5135)","(4:88.9483,27.3998,89.1622,27.6271)",187,,,Doklam Plateau,Doklam Plateau,TRUE,,
1380852,disputed area,JP,D0CNIN0,,,,"(2:94.0334,28.1416)","(4:91.56229999999999,26.8862,97.3954,29.3827)",77393,,,Arunachal Pradash,Arunachal Pradash,TRUE,,
16716022,state,all,XS,,XSB,Q37362,"(2:33.7622,35.0331)","(4:32.7549,34.5623,33.9166,35.1237)",311,Asia,Western Asia,Sovereign Base Areas of Akrotiri and Dhekelia,Sovereign Base Areas of Akrotiri and Dhekelia,FALSE,6,"{ ""en"": [ ""Akrotiri and Dhekelia"", ""Sovereign Base Areas of Akrotiri and Dhekelia"" ] }"
12849361,state,all,ST,,STP,Q1039,"(2:6.595,0.216)","(4:6.4605,-0.0138,7.4624,1.7015)",1009,Africa,Sub-Saharan Africa,São Tomé e Príncipe,São Tomé and Príncipe,FALSE,1,"{ ""en"": [ ""São Tomé and Príncipe"", ""Democratic Republic of São Tomé and Príncipe"", ""São Tomé og Príncipe"", ""Sao Tome and Principe"", ""st"", ""🇸🇹"", ""STP"" ], ""pt"": [ ""São Tomé e Príncipe"", ""Sao Tome e Principe"" ] }"
7016556,state,all,IR,,IRN,Q794,"(2:53.7474,32.719)","(4:44.0319,25.0591,63.3209,39.7831)",1936614,Asia,Southern Asia,ایران,Iran,FALSE,4,"{ ""en"": [ ""Iran"", ""Islamic Republic of Iran"", ""Persia"", ""ir"", ""Islamic Rep. Iran"", ""🇮🇷"", ""Republic of Iran"" ], ""fa"": [ ""ایران"", ""جمهوری اسلامی ایران"", ""ایران‌زمین"", ""پارس"", ""جمهوری ایران"" ], ""azb"": [ ""ایران"" ] }"
5181520,dependent territory,all,GF,FR,GUF,Q3769,"(2:-53.0359,3.9351)","(4:-54.53,2.1229,-51.6202,5.7517)",84341,Americas,Latin America and the Caribbean,Guyane,French Guiana,FALSE,7,"{ ""en"": [ ""French Guiana"", ""gf"", ""🇬🇫"", ""Guyane"", ""Guiana (France)"", ""Guyane française"" ], ""fr"": [ ""Guyane"", ""973"" ] }"
4067368,state,all,CD,,COD,Q974,"(2:22.4374,-4.0875)","(4:12.2003,-13.4548,31.3328,5.3922)",2360347,Africa,Sub-Saharan Africa,République Démocratique du Congo,Democratic Republic of the Congo,FALSE,4,"{ ""en"": [ ""Democratic Republic of the Congo"", ""DRC"", ""DR Congo"", ""Congo-Kinshasa"", ""Zaire"", ""Congo"", ""Democratic Republic of Congo"", ""cd"", ""Dem. Republic of the Congo"", ""Dem. Republic of Congo"", ""Dem. Rep. Congo"", ""🇨🇩"", ""Congo (Kinshasa)"", ""COD"" ], ""sw"": [ ""Jamhuri ya Kidemokrasia ya Kongo"" ] }"
9113753,state,all,MT,,MLT,Q233,"(2:14.4137,35.9024)","(4:14.1834,35.8062,14.5765,36.0824)",392,Europe,Southern Europe,Malta,Malta,FALSE,1,"{ ""en"": [ ""Malta"", ""Republic of Malta"", ""mt"", ""🇲🇹"", ""MLT"" ], ""fr"": [ ""Malte"" ], ""it"": [ ""Malta"", ""Repubblica di Malta"" ], ""mt"": [ ""Malta"" ] }"
15667434,state,all,UY,,URY,Q77,"(2:-55.7992,-32.5631)","(4:-58.4891,-34.9735,-53.1014,-30.0855)",213064,Americas,Latin America and the Caribbean,Uruguay,Uruguay,FALSE,1,"{ ""en"": [ ""Uruguay"", ""República Oriental del Uruguay"", ""uy"", ""🇺🇾"", ""Republica Oriental del Uruguay"", ""URU"" ], ""es"": [ ""Uruguay"", ""República Oriental de Uruguay"" ] }"
15077599,state,all,TN,,TUN,Q948,"(2:8.841200000000001,33.8627)","(4:7.5227,30.2303,11.6112,37.5597)",188995,Africa,Northern Africa,تونس,Tunisia,FALSE,4,"{ ""ar"": [ ""تونس"", ""الجمهورية التونسية"", ""تونس الخضراء"", ""تُوْنِس"" ], ""en"": [ ""Tunisia"", ""Republic of Tunisia"", ""Tūnis"", ""Tunisian Republic"", ""al-Jumhūriyyah at-Tūnisiyyah"", ""tn"", ""🇹🇳"", ""TUN"" ], ""fr"": [ ""Tunisie"" ] }"
13373642,state,all,SK,,SVK,Q214,"(2:19.6543,48.6813)","(4:16.8334,47.7312,22.5665,49.6138)",74312,Europe,Eastern Europe,Slovensko,Slovakia,FALSE,2,"{ ""cs"": [ ""Slovensko"", ""Slovenská republika"", ""Slovenský štát"" ], ""de"": [ ""Slowakei"", ""Slowakische Republik"", ""Slowakien"" ], ""en"": [ ""Slovakia"", ""Slovak Republic"", ""sk"", ""🇸🇰"", ""SVK"" ], ""hu"": [ ""Szlovákia"", ""Szlovák Köztársaság"", ""Felvidék"" ], ""sk"": [ ""Slovensko"", ""Slovenská republika"" ] }"
2035743,state,all,BR,,BRA,Q155,"(2:-49.7742,-15.1216)","(4:-73.9901,-33.7504,-28.8483,5.2724)",8734596,Americas,Latin America and the Caribbean,Brasil,Brazil,FALSE,5,"{ ""en"": [ ""Brazil"", ""Federative Republic of Brazil"", ""Brasil"", ""República Federativa do Brasil"", ""Federativa República do Brasil"", ""Republic Federative of Brasil"", ""Estados Unidos del Brazil"", ""BR"", ""BRA"", ""Republica Federativa do Brasil"", ""Federativa Republica do Brasil"", ""br"", ""🇧🇷"" ], ""pt"": [ ""Brasil"", ""República Federativa do Brasil"", ""Brazil"" ] }"
8589445,state,all,LT,,LTU,Q37,"(2:24.1282,55.195)","(4:20.9539,53.8988,26.8354,56.4502)",114290,Europe,Northern Europe,Lietuva,Lithuania,FALSE,6,"{ ""de"": [ ""Litauen"" ], ""en"": [ ""Lithuania"", ""Republic of Lithuania"", ""lt"", ""Lietuva"", ""🇱🇹"", ""LTU"" ], ""lt"": [ ""Lietuva"", ""Lietuvos Respublika"" ], ""ru"": [ ""Литва"", ""Lietuva"", ""Литовская Республика"" ] }"
12914881,state,all,SA,,SAU,Q851,"(2:44.1943,24.5136)","(4:34.4953,16.3795,55.6666,32.1537)",2121348,Asia,Western Asia,السعودية,Saudi Arabia,FALSE,6,"{ ""ar"": [ ""السعودية"", ""المملكة العربية"", ""بلاد الحرمين"", ""السعوديه"", ""المملكة العربية السعودية"" ], ""en"": [ ""Saudi Arabia"", ""Kingdom of Saudi Arabia"", ""🇸🇦"", ""KSA"", ""sa"" ] }"
13045950,state,US,RS,,SRB,Q403,"(2:21.0101,44.2456)","(4:18.838,42.2357,23.006,46.1898)",108170,Europe,Southern Europe,Србија,Serbia,FALSE,3,"{ ""en"": [ ""Serbia"", ""🇷🇸"", ""Republic of Serbia"", ""Republika Srbija"", ""rs"", ""Srbija"", ""SRB"" ], ""sq"": [ ""Serbia"", ""Republika e Serbisë"" ], ""sr"": [ ""Србија"", ""Република Србија"", ""rs"", ""Republika Srbija"" ], ""sr-ec"": [ ""Србија"" ], ""sr-el"": [ ""Srbija"" ] }"
8851612,state,all,MW,,MWI,Q1020,"(2:33.7428,-13.2731)","(4:32.6748,-17.1259,35.9173,-9.3622)",122428,Africa,Sub-Saharan Africa,Malawi,Malawi,FALSE,1,"{ ""en"": [ ""Malawi"", ""Republic of Malawi"", ""mw"", ""🇲🇼"", ""MAW"" ], ""ny"": [ ""Malaŵi"" ] }"
14356523,state,all,CH,,CHE,Q39,"(2:8.4481,46.8224)","(4:5.9559,45.818,10.4921,47.8085)",59508,Europe,Western Europe,Switzerland,Switzerland,FALSE,5,"{ ""de"": [ ""Schweiz"", ""Schweizerische Eidgenossenschaft"", ""Eidgenossenschaft"", ""CH"", ""SUI"", ""CHE"" ], ""en"": [ ""Switzerland"", ""Swiss Confederation"", ""CH"", ""SUI"", ""Suisse"", ""Schweiz"", ""Svizzera"", ""🇨🇭"", ""Swiss"" ], ""fr"": [ ""Suisse"", ""Confédération helvétique"", ""Confédération suisse"", ""CH"", ""SUI"", ""Helvétie"", ""🇨🇭"" ], ""gsw"": [ ""Schwiz"", ""Schwiiz, Schwyz (aber nöd zverwägsle mit Schwyz, wo e Gmaind, en Bezirk und en Kanton bedüte chan)"", ""Eidgenosseschaft"", ""Helvezie"" ] }"
12652781,state,all,VC,,VCT,Q757,"(2:-61.1949,13.2528)","(4:-61.4611,12.5829,-61.1148,13.3829)",401,Americas,Latin America and the Caribbean,Saint Vincent and the Grenadines,Saint Vincent and the Grenadines,FALSE,1,"{ ""en"": [ ""Saint Vincent and the Grenadines"", ""vc"", ""St. Vincent and the Grenadines"", ""St Vincent and the Grenadines"", ""Saint Vincent"", ""St. Vincent"", ""St Vincent"", ""🇻🇨"" ] }"
16322626,state,all,EH,,ESH,Q6250,"(2:-13.686,24.2721)","(4:-17.1033,20.7697,-8.6663,27.6837)",298478,Africa,Northern Africa,الصحراء الغربية,Western Sahara,FALSE,4,"{ ""ar"": [ ""الصحراء الغربية"", ""صحراء غربية"" ], ""en"": [ ""Western Sahara"", ""eh"", ""West Sahara"", ""Spanish Sahara"", ""West-Sahara"", ""🇪🇭"" ] }"
15274198,dependent territory,all,TC,UK,TCA,Q18221,"(2:-71.75920000000001,21.7779)","(4:-72.48220000000001,21.1774,-71.0819,21.9624)",1041,Americas,Latin America and the Caribbean,Turks and Caicos Islands,Turks and Caicos Islands,FALSE,6,"{ ""en"": [ ""Turks and Caicos Islands"", ""TCI"", ""🇹🇨"", ""tc"", ""Turks & Caicos"" ] }"
6230097,state,all,GG,,GGY,Q25230,"(2:-2.5827,49.4632)","(4:-2.6751,49.4002,-2.1586,49.7328)",124,Europe,Northern Europe,Guernsey,Guernsey,FALSE,6,"{ ""en"": [ ""Guernsey"", ""Bailliage de Guernesey"", ""Bailiwick of Guernsey"", ""gg"", ""🇬🇬"", ""XA-GG"", ""Lisia"", ""GGY"", ""GB-GSY"", ""GBG"", ""Great Britain Guernsey"" ] }"
2560047,state,all,CM,,CMR,Q1009,"(2:13.6386,7.4045)","(4:8.498699999999999,1.6514,16.1912,13.0809)",470320,Africa,Sub-Saharan Africa,Cameroun - Cameroon,Cameroon,FALSE,1,"{ ""en"": [ ""Cameroon"", ""Republic of Cameroon"", ""cm"", ""🇨🇲"", ""CMR"", ""CAM"" ], ""fr"": [ ""Cameroun"", ""République du Cameroun"", ""CMR"" ] }"
13045950,state,IN,RS,,SRB,Q403,"(2:21.0101,44.2456)","(4:18.838,42.2357,23.006,46.1898)",108170,Europe,Southern Europe,Србија,Serbia,FALSE,3,"{ ""en"": [ ""Serbia"", ""🇷🇸"", ""Republic of Serbia"", ""Republika Srbija"", ""rs"", ""Srbija"", ""SRB"" ], ""sq"": [ ""Serbia"", ""Republika e Serbisë"" ], ""sr"": [ ""Србија"", ""Република Србија"", ""rs"", ""Republika Srbija"" ], ""sr-ec"": [ ""Србија"" ], ""sr-el"": [ ""Srbija"" ] }"
10948757,dependent territory,all,MP,US,MNP,Q16644,"(2:145.7471,15.1905)","(4:144.885,14.1101,146.066,20.555)",515,Oceania,Micronesia,Northern Mariana Islands,Northern Mariana Islands,FALSE,4,"{ ""ch"": [ ""Notte Mariånas"", ""Sankattan Siha Na Islas Mariånas"" ], ""en"": [ ""Northern Mariana Islands"", ""MP"", ""NMI"", ""Commonwealth of the Northern Maria Islands"", ""CNMI"", ""🇲🇵"" ] }"
6885481,state,IN,IN,,IND,Q668,"(2:78.64960000000001,23.3717)","(4:68.17449999999999,6.756,97.3954,37.0919)",3626444,Asia,Southern Asia,India,India,FALSE,1,"{ ""en"": [ ""India"", ""Bharat"", ""Hindustan"", ""Bharatvarsh"", ""in"", ""IN"", ""Republic of India"", ""🇮🇳"", ""IND"" ], ""hi"": [ ""भारत"", ""हिंदुस्तान"", ""भारतवर्ष"", ""इंडिया"", ""भारत गणराज्य"", ""इण्डिया"", ""हिन्दोस्तान"", ""हिन्दुस्तान"", ""आर्यवर्त"" ] }"
7278695,state,all,IL,,ISR,Q801,"(2:34.665,31.434)","(4:34.2678,29.4956,35.8945,33.333)",25871,Asia,Western Asia,ישראל,Israel,FALSE,3,"{ ""ar"": [ ""إسرائيل"", ""الدولة العبرية"", ""دولة إسرائيل"" ], ""en"": [ ""Israel"", ""State of Israel"", ""il"", ""🇮🇱"", ""Holy Land"", ""the Jewish state"", ""ISR"" ], ""he"": [ ""ישראל"", ""מדינת ישראל"", ""מְדִינַת יִשְׂרָאֵל"" ], ""ru"": [ ""Израиль"", ""Государство Израиль"" ] }"
593924,state,all,AG,,ATG,Q781,"(2:-61.7945,17.0856)","(4:-62.3473,16.9323,-61.657,17.7294)",443,Americas,Latin America and the Caribbean,Antigua and Barbuda,Antigua and Barbuda,FALSE,2,"{ ""en"": [ ""Antigua and Barbuda"", ""ag"", ""🇦🇬"", ""ANT"" ] }"
6099036,dependent territory,all,GU,US,GUM,Q16635,"(2:144.7579,13.45)","(4:144.618,13.2343,144.9569,13.6542)",568,Oceania,Micronesia,Guam,Guam,FALSE,4,"{ ""ch"": [ ""Guåhån"" ], ""en"": [ ""Guam"", ""GU"", ""🇬🇺"", ""Territory of Guam"" ] }"
9048209,state,all,ML,,MLI,Q912,"(2:-0.7247,17.4996)","(4:-12.2403,10.1521,4.2493,24.9999)",1310878,Africa,Sub-Saharan Africa,Mali,Mali,FALSE,1,"{ ""bm"": [ ""Mali"" ], ""en"": [ ""Mali"", ""Republic of Mali"", ""République du Mali"", ""ml"", ""🇲🇱"", ""Republique du Mali"", ""MLI"" ], ""fr"": [ ""Mali"", ""République du Mali"" ] }"
9834636,state,all,ME,,MNE,Q236,"(2:19.2878,42.7151)","(4:18.4354,41.8468,20.3555,43.5518)",19002,Europe,Southern Europe,Crna Gora,Montenegro,FALSE,4,"{ ""en"": [ ""Montenegro"", ""me"", ""🇲🇪"", ""MNE"" ], ""sr"": [ ""Црна Гора"" ], ""sr-el"": [ ""Crna Gora"" ] }"
15864041,state,all,US,,USA,Q30,"(2:-99.5889,38.1815)","(4:-179.1448,18.9107,179.7749,71.3904)",16834531,Americas,Northern America,United States,United States,FALSE,4,"{ ""en"": [ ""United States of America"", ""the United States"", ""the United States of America"", ""United States"", ""America"", ""the States"", ""U.S.A."", ""USA"", ""U.S."", ""US"", ""the US"", ""the USA"", ""US of A"", ""🇺🇸"" ] }"
13308115,state,all,SX,,SXM,Q26273,"(2:-63.0544,18.034)","(4:-63.138,18.0054,-63.0132,18.0626)",34,Americas,Latin America and the Caribbean,Sint Maarten,Sint Maarten,FALSE,4,"{ ""en"": [ ""Sint Maarten"", ""St. Maarten"", ""Saint Martin (Dutch part)"", ""Sint Maarten (Dutch part)"", ""🇸🇽"", ""St Martin"", ""SX"", ""NL-SX"", ""Saint Martin"" ], ""es"": [ ""Sint Maarten"", ""San Martín"", ""San Martin"" ] }"
2363892,disputed area,JP,D0CNTWVN1,,,,"(2:111.7015,16.2212)","(4:111.1905,15.7749,112.7456,17.1141)",489,,,Paracel Islands,Paracel Islands,TRUE,,
10227881,state,all,NR,,NRU,Q697,"(2:166.9315,-0.5286999999999999)","(4:166.9096,-0.5542,166.9593,-0.5021)",22,Oceania,Micronesia,Nauru,Nauru,FALSE,3,"{ ""en"": [ ""Nauru"", ""Republic of Nauru"", ""Pleasant Island"", ""Naoero"", ""nr"", ""🇳🇷"" ], ""na"": [ ""Naoero"" ] }"
1511924,disputed area,CN,D0INPK1,,,,"(2:75.4564,34.957)","(4:72.5081,32.7649,77.1204,37.0919)",97311,,,Pakistan-administered Kashmir,Pakistan-administered Kashmir,TRUE,,
397812,disputed area,CN,D0GYSR1,,,,"(2:-57.3612,2.4457)","(4:-58.3309,1.4976,-56.4851,3.3943)",14492,,,Tigri Area,Tigri Area,TRUE,,
2298356,disputed area,US,D0CNPHTWVN1,,,,"(2:113.3158,8.1846)","(4:111.6427,7.3643,116.9354,11.4694)",647,,,Spratly Islands,Spratly Islands,TRUE,,
2232820,disputed area,JP,D0INNP2,,,,"(2:83.8659,27.3922)","(4:83.8167,27.3464,83.9084,27.438)",37,,,Susta disputed area,Susta disputed area,TRUE,,
16060652,state,all,VA,,VAT,Q237,"(2:12.4532,41.9039)","(4:12.4457,41.9003,12.4585,41.9076)",0,Europe,Southern Europe,Vatican City,Vatican City,FALSE,1,"{ ""en"": [ ""Vatican City"", ""Vatican City State"", ""Papal State"", ""Vatican"", ""va"", ""🇻🇦"", ""The Vatican"", ""vat"", ""Status Civitatis Vaticanae"", ""Stato della Città del Vaticano"", ""Città del Vaticano"", ""Civitas Vaticana"", ""State of Vatican City"" ], ""it"": [ ""Città del Vaticano"", ""Vaticano"", ""Stato della Città del Vaticano"" ], ""la"": [ ""Civitas Vaticana"", ""Status Civitatis Vaticanae"", ""Status Civitatis Vaticanæ"" ] }"
11276471,state,all,PS,,PSE,Q219060,"(2:35.2703,31.9492)","(4:34.2186,31.2199,35.5739,32.5525)",7187,Asia,Western Asia,قطاع غزة,Palestine,FALSE,3,"{ ""ar"": [ ""فلسطين"", ""دوله فلسطين"" ], ""en"": [ ""State of Palestine"", ""Palestinian Authority"", ""PA"", ""🇵🇸"", ""Palestinian state"", ""Palestine"" ] }"
13832400,state,IN,SS,,SSD,Q958,"(2:29.1116,7.8795)","(4:24.1507,3.4803,35.9353,12.2322)",636626,Africa,Sub-Saharan Africa,South Sudan,South Sudan,FALSE,1,"{ ""ar"": [ ""جنوب السودان"", ""جمهورية جنوب السودان"", ""قائمة جزر جنوب السودان"", ""بانتيو (مدينة)"", ""يامبيو (مدينة)"", ""رمبيك (مدينة)"", ""أويل (مدينة)"", ""اويل"", ""جوبا (مدينة)"", ""ملكال (مدينة)"", ""كودوك"", ""فاشودا"", ""فاشودة"", ""ياي"", ""عاصمة جنوب السودان"" ], ""en"": [ ""South Sudan"", ""Republic of South Sudan"", ""Southern Sudan"", ""ss"", ""🇸🇸"", ""SSD"" ] }"
13242566,state,all,SG,,SGP,Q334,"(2:103.8297,1.3389)","(4:103.6057,1.1587,104.0855,1.4707)",724,Asia,South-eastern Asia,Singapore,Singapore,FALSE,5,"{ ""en"": [ ""Singapore"", ""Republic of Singapore"", ""SG"", ""sg"", ""🇸🇬"", ""Singapore City"", ""SGP"" ], ""ms"": [ ""Singapura"" ], ""zh"": [ ""新加坡"", ""新加坡共和国"", ""新加坡共和國"" ] }"
8982683,state,all,MV,,MDV,Q826,"(2:73.09999999999999,-0.6321)","(4:72.6392,-0.7037,73.75960000000001,7.1064)",226,Asia,Southern Asia,Maldives,Maldives,FALSE,2,"{ ""dv"": [ ""ދިވެހިރާއްޖެ"", ""ދިވެހިރާއްޖޭގެ ޖުމުހޫރިއްޔާ"", ""ދިވެހިރާއްޖޭގެ ޖުމްހޫރިއްޔާ"" ], ""en"": [ ""Maldives"", ""mv"", ""🇲🇻"", ""Republic of Maldives"", ""MDV"" ] }"
397320,state,all,AO,,AGO,Q916,"(2:18.8562,-12.005)","(4:11.6693,-18.0395,24.0837,-4.3607)",1290030,Africa,Sub-Saharan Africa,Angola,Angola,FALSE,3,"{ ""en"": [ ""Angola"", ""Republic of Angola"", ""ao"", ""🇦🇴"", ""Ngola"", ""ANG"" ], ""pt"": [ ""Angola"" ] }"
4984903,state,all,FJ,,FJI,Q712,"(2:177.9783,-17.7941)","(4:-180,-21.0424,179.9999,-12.4617)",19940,Oceania,Melanesia,Fiji,Fiji,FALSE,5,"{ ""en"": [ ""Fiji"", ""Republic of Fiji"", ""fj"", ""🇫🇯"", ""FIJ"" ], ""fj"": [ ""Viti"", ""Matanitu Tugalala o Viti"" ], ""hi"": [ ""फ़िजी"" ], ""hif"": [ ""Fiji"" ] }"
4853832,dependent territory,all,FK,UK,FLK,Q9648,"(2:-58.6015,-51.8)","(4:-61.4563,-52.9191,-57.7147,-50.9967)",19459,Americas,Latin America and the Caribbean,Falkland Islands (Islas Malvinas),Falkland Islands (Islas Malvinas),FALSE,6,"{ ""en"": [ ""Falkland Islands"", ""Falklands"", ""Malvinas"", ""Islas Malvinas"", ""fk"", ""flk"", ""🇫🇰"" ] }"
13897796,state,all,ES,,ESP,Q29,"(2:-3.4204,40.0061)","(4:-18.1608,27.6378,4.3277,43.7904)",667403,Europe,Southern Europe,España,Spain,FALSE,4,"{ ""ca"": [ ""Espanya"", ""Regne d'Espanya"", ""ES"", ""ESP"", ""Estat espanyol"", ""🇪🇸"" ], ""en"": [ ""Spain"", ""España"", ""Kingdom of Spain"", ""ES"", ""ESP"", ""🇪🇸"" ], ""es"": [ ""España"", ""Reino de España"", ""ES"", ""ESP"", ""Estado español"", ""🇪🇸"" ] }"
528393,state,all,AQ,,ATA,Q51,"(2:63.6432,-78.41679999999999)","(4:-180,-85.05110000000001,180,-60.5155)",58466582,Antarctica,Antarctica,Antarctica,Antarctica,FALSE,4,"{ ""en"": [ ""Antarctica"" ] }"
15536130,state,all,AE,,ARE,Q878,"(2:55.1509,24.3653)","(4:51.498,22.6282,56.3816,26.0788)",78088,Asia,Western Asia,الإمارات العربية المتحدة,United Arab Emirates,FALSE,2,"{ ""ar"": [ ""الإمارات العربية المتحدة"", ""الإمارات"", ""دولة الإمارات العربية المتحدة"" ], ""en"": [ ""United Arab Emirates"", ""U.A.E."", ""🇦🇪"", ""UAE"", ""ae"", ""Emirates"", ""the United Arab Emirates"", ""the UAE"", ""the U.A.E."", ""the Emirates"" ] }"
7213160,state,all,IM,,IMN,Q9676,"(2:-4.5149,54.2362)","(4:-4.8307,54.0431,-4.3079,54.4181)",978,Europe,Northern Europe,Isle of Man,Isle of Man,FALSE,6,"{ ""en"": [ ""Isle of Man"", ""Ellan Vannin"", ""Mann"", ""the Isle of Man"", ""im"", ""Manx"", ""🇮🇲"" ] }"
3018798,state,all,CL,,CHL,Q298,"(2:-72.3188,-37.8958)","(4:-109.4498,-55.982,-66.4148,-17.4986)",1020689,Americas,Latin America and the Caribbean,Chile,Chile,FALSE,5,"{ ""en"": [ ""Chile"", ""cl"", ""República de Chile"", ""🇨🇱"", ""Republica de Chile"", ""Republic of Chile"", ""CHI"" ], ""es"": [ ""Chile"", ""República de Chile"", ""Republica de Chile"" ] }"
462853,dependent territory,all,AI,UK,AIA,Q25228,"(2:-63.0406,18.2177)","(4:-63.4296,18.1491,-62.9244,18.5953)",84,Americas,Latin America and the Caribbean,Anguilla,Anguilla,FALSE,6,"{ ""en"": [ ""Anguilla"", ""ai"", ""🇦🇮"" ] }"
266740,disputed area,all,D0EGSD1,,,,"(2:35.5497,22.5762)","(4:34.0814,22,36.8944,23.1463)",19449,,,Hala'ib Triangle,Hala'ib Triangle,TRUE,,
70132,disputed area,all,D0SDSS2,,,,"(2:24.1191,9.260199999999999)","(4:23.4407,8.683,24.8471,9.8377)",13301,,,Kafia Kingi,Kafia Kingi,TRUE,,
856077,state,all,AU,,AUS,Q408,"(2:133.5282,-25.7567)","(4:72.5827,-54.778,167.997,-9.142200000000001)",8694425,Oceania,Australia and New Zealand,Australia,Australia,FALSE,1,"{ ""en"": [ ""Australia"", ""Commonwealth of Australia"", ""AU"", ""AUS"", ""au"", ""British Colony of Australia"", ""🇦🇺"", ""Straya"" ] }"
11145394,state,US,PK,,PAK,Q843,"(2:70.2714,30.6947)","(4:60.8738,23.7046,77.1204,37.0919)",1007923,Asia,Southern Asia,پاكِستان - Pakistan,Pakistan,FALSE,2,"{ ""en"": [ ""Pakistan"", ""🇵🇰"", ""pk"", ""Islamic Republic of Pakistan"" ], ""ps"": [ ""پاکستان"" ], ""sd"": [ ""پاڪستان"", ""اسلامي جمھوريہ پاڪستان"" ], ""ur"": [ ""پاکستان"", ""اسلامی جمہوریہ پاکستان"" ], ""pnb"": [ ""پاکستان"" ] }"
16453882,state,all,ZM,,ZMB,Q953,"(2:25.4621,-13.2073)","(4:22,-18.0765,33.703,-8.2415)",778428,Africa,Sub-Saharan Africa,Zambia,Zambia,FALSE,5,"{ ""en"": [ ""Zambia"", ""Republic of Zambia"", ""zm"", ""ZAM"", ""🇿🇲"" ], ""ny"": [ ""Zambia"" ] }"
13832400,state,JP,SS,,SSD,Q958,"(2:29.1116,7.8795)","(4:24.1507,3.4803,35.9353,12.2322)",639959,Africa,Sub-Saharan Africa,South Sudan,South Sudan,FALSE,1,"{ ""ar"": [ ""جنوب السودان"", ""جمهورية جنوب السودان"", ""قائمة جزر جنوب السودان"", ""بانتيو (مدينة)"", ""يامبيو (مدينة)"", ""رمبيك (مدينة)"", ""أويل (مدينة)"", ""اويل"", ""جوبا (مدينة)"", ""ملكال (مدينة)"", ""كودوك"", ""فاشودا"", ""فاشودة"", ""ياي"", ""عاصمة جنوب السودان"" ], ""en"": [ ""South Sudan"", ""Republic of South Sudan"", ""Southern Sudan"", ""ss"", ""🇸🇸"", ""SSD"" ] }"
6688865,state,all,HN,,HND,Q783,"(2:-87.2195,14.5108)","(4:-89.35639999999999,12.9837,-83.1358,17.4177)",116438,Americas,Latin America and the Caribbean,Honduras,Honduras,FALSE,2,"{ ""en"": [ ""Honduras"", ""hn"", ""🇭🇳"", ""Republic of Honduras"", ""Honduran Republic"", ""HON"" ], ""es"": [ ""Honduras"", ""República de Honduras"" ] }"
14749917,state,all,TL,,TLS,Q574,"(2:125.7585,-8.891500000000001)","(4:124.043,-9.5036,127.3423,-8.126899999999999)",15203,Asia,South-eastern Asia,Timor-Leste - Timor Lorosa’e,East Timor,FALSE,2,"{ ""en"": [ ""East Timor"", ""Democratic Republic of Timor-Leste"", ""Timor-Leste"", ""tl"", ""🇹🇱"", ""Timor Leste"", ""Democratic Republic of East Timor"", ""TLS"" ], ""pt"": [ ""Timor-Leste"", ""Timor Leste"" ], ""tet"": [ ""Timor-Leste"" ] }"
1380852,disputed area,US,D0CNIN0,,,,"(2:94.0334,28.1416)","(4:91.56229999999999,26.8862,97.3954,29.3827)",77393,,,Arunachal Pradash,Arunachal Pradash,TRUE,,
659466,state,all,AR,,ARG,Q414,"(2:-64.9932,-38.6979)","(4:-73.56529999999999,-55.0572,-53.6358,-21.7815)",3369093,Americas,Latin America and the Caribbean,Argentina,Argentina,FALSE,3,"{ ""en"": [ ""Argentina"", ""AR"", ""ar"", ""🇦🇷"", ""Argentine Republic"", ""ARG"" ], ""es"": [ ""Argentina"", ""República Argentina"", ""Provincias Unidas del Río de la Plata"", ""Confederación Argentina"", ""Republica Argentina"", ""Provincias Unidas del Rio de la Plata"", ""Confederacion Argentina"", ""🇦🇷"" ] }"
1249780,disputed area,JP,D0CNIN5,,,,"(2:78.6045,32.6215)","(4:78.5668,32.6004,78.64109999999999,32.6423)",25,,,Chumar disputed area,Chumar disputed area,TRUE,,
2298356,disputed area,JP,D0CNPHTWVN1,,,,"(2:113.3158,8.1846)","(4:111.6427,7.3643,116.9354,11.4694)",647,,,Spratly Islands,Spratly Islands,TRUE,,
1184244,disputed area,US,D0CNIN4,,,,"(2:78.7079,32.683)","(4:78.6656,32.6564,78.746,32.7097)",18,,,Chumar East disputed area,Chumar East disputed area,TRUE,,
1511924,disputed area,JP,D0INPK1,,,,"(2:75.4564,34.957)","(4:72.5081,32.7649,77.1204,37.0919)",97311,,,Pakistan-administered Kashmir,Pakistan-administered Kashmir,TRUE,,
8392835,state,all,LR,,LBR,Q1014,"(2:-9.638199999999999,6.456)","(4:-11.4918,4.3535,-7.3672,8.551)",97145,Africa,Sub-Saharan Africa,Liberia,Liberia,FALSE,2,"{ ""en"": [ ""Liberia"", ""Republic of Liberia"", ""lr"", ""🇱🇷"", ""LBR"" ] }"
9965705,state,all,MA,,MAR,Q1028,"(2:-6.1699,31.8889)","(4:-13.1671,27.6705,-1.0108,35.9222)",489286,Africa,Northern Africa,المغرب,Morocco,FALSE,2,"{ ""ar"": [ ""المغرب"", ""المملكة المغربية"", ""المغرب الكبير"" ], ""en"": [ ""Morocco"", ""Kingdom of Morocco"", ""Arab Maghreb"", ""Marocco"", ""al-Maġrib"", ""Lmaġrib"", ""Maroc"", ""ma"", ""🇲🇦"", ""MAR"" ], ""fr"": [ ""Maroc"", ""Royaume du Maroc"", ""ma"" ], ""ary"": [ ""لمغريب"" ] }"
1642996,disputed area,US,D0GFSR1,,,,"(2:-54.1343,2.7239)","(4:-54.6024,2.1443,-53.9703,3.3029)",3444,,,French Guiana–Suriname disputed area,French Guiana–Suriname disputed area,TRUE,,
2298356,disputed area,IN,D0CNPHTWVN1,,,,"(2:113.3158,8.1846)","(4:111.6427,7.3643,116.9354,11.4694)",647,,,Spratly Islands,Spratly Islands,TRUE,,
12259354,dependent territory,all,BL,FR,BLM,Q25362,"(2:-62.8117,17.9036)","(4:-62.9101,17.8782,-62.7891,17.9608)",21,Americas,Latin America and the Caribbean,Saint-Barthélemy,Saint-Barthélemy,FALSE,7,"{ ""en"": [ ""Saint Barthélemy"", ""Saint Barthélemy"", ""Ouanalao"", ""Collectivité de Saint-Barthélemy"", ""Saint Barths"", ""Ile Saint-Barthélemy"", ""Saint Barthélémy"", ""St. Barthelemy"", ""St barths"", ""St. Barthélemy"", ""Saint Barts"", ""Saint-Barthélémy"", ""St. Barths"", ""ISO 3166-1:BL"", ""Île Saint-Barthélemy"", ""Saint Bartz"", ""St barts"", ""St. Barth"", ""America\/St Barthelemy"", ""Collectivity of Saint Barthélemy"", ""Saint-Barthelemy"", ""Saint Barthelemy"", ""St barthelemy"", ""Saint Barth"", ""bl"", ""🇧🇱"", ""Collectivite de Saint-Barthelemy"", ""Ile Saint-Barthelemy"", ""Collectivity of Saint Barthelemy"", ""St. Barts"", ""FR-BL"" ], ""fr"": [ ""Saint-Barthélemy"", ""Saint Barthélemy"", ""St Barth"", ""Collectivite d'outre-mer de Saint-Barthelemy"", ""Collectivité d'outre-mer de Saint-Barthélemy"", ""Saint-Barthélémy"", ""Saint-Barth"", ""Saint Barth"", ""977"", ""bl"", ""🇧🇱"", ""ISO 3166-1:BL"", ""FR-BL"" ] }"
397812,disputed area,IN,D0GYSR1,,,,"(2:-57.3612,2.4457)","(4:-58.3309,1.4976,-56.4851,3.3943)",14492,,,Tigri Area,Tigri Area,TRUE,,
1249298,state,all,BB,,BRB,Q244,"(2:-59.559,13.1898)","(4:-59.6526,13.0447,-59.4203,13.3348)",446,Americas,Latin America and the Caribbean,Barbados,Barbados,FALSE,4,"{ ""en"": [ ""Barbados"", ""BB"", ""bb"", ""🇧🇧"", ""BAR"" ] }"
3477553,state,all,CO,,COL,Q739,"(2:-72.6147,4.1587)","(4:-81.73569999999999,-4.2285,-66.84650000000001,13.3948)",1151361,Americas,Latin America and the Caribbean,Colombia,Colombia,FALSE,2,"{ ""en"": [ ""Colombia"", ""🇨🇴"", ""República de Colombia"", ""Republic of Colombia"", ""Republica de Colombia"", ""COL"" ], ""es"": [ ""Colombia"", ""República de Colombia (wayuunaiki)"", ""República de Colombia"", ""Republica de Colombia"" ] }"
8654982,state,all,LU,,LUX,Q32,"(2:6.0814,49.8167)","(4:5.7358,49.4478,6.531,50.1827)",4011,Europe,Western Europe,Luxembourg,Luxembourg,FALSE,1,"{ ""de"": [ ""Luxemburg"", ""Groussherzogtum Lëtzebuerg"", ""Grand-Duché de Luxembourg"" ], ""en"": [ ""Luxembourg"", ""Luxemburg"", ""Grand Duchy of Luxembourg"", ""LU"", ""lu"", ""🇱🇺"", ""LUX"" ], ""fr"": [ ""Luxembourg"", ""Grand-Duché de Luxembourg"", ""Grand-duché de Luxembourg"", ""grand-duché de Luxembourg"", ""LUX"", ""LU"", ""🇱🇺"" ], ""lb"": [ ""Lëtzebuerg"", ""Groussherzogtum Lëtzebuerg"", ""Lëtzebuerger Land"", ""Grand-Duché de Luxembourg"", ""Grand-Duché"" ], ""pt"": [ ""Luxemburgo"", ""Grão-de-bico do Luxemburgo"", ""de Luxemburgo"", ""Grão-Ducado de Luxemburgo"" ] }"
8261759,state,all,LB,,LBN,Q822,"(2:35.9001,33.878)","(4:35.1036,33.0554,36.6233,34.6921)",12369,Asia,Western Asia,لبنان,Lebanon,FALSE,4,"{ ""ar"": [ ""لبنان"", ""الجمهوريّة اللبنانيّة"" ], ""en"": [ ""Lebanon"", ""Lebanese Republic"", ""lb"", ""Republic of Lebanon"", ""🇱🇧"", ""LBN"" ] }"
1708061,state,all,BO,,BOL,Q750,"(2:-63.6244,-16.3961)","(4:-69.6444,-22.9004,-57.4526,-9.6669)",1143748,Americas,Latin America and the Caribbean,Bolivia,Bolivia,FALSE,1,"{ ""ay"": [ ""Wuliwya"" ], ""en"": [ ""Bolivia"", ""Plurinational State of Bolivia"", ""bo"", ""bol"", ""🇧🇴"", ""Republic of Bolivia"", ""BOL"" ], ""es"": [ ""Bolivia"", ""República de Bolivia"", ""Estado Plurinacional de Bolivia"" ], ""qu"": [ ""Buliwya"" ] }"
724999,state,all,AM,,ARM,Q399,"(2:44.8409,40.0811)","(4:43.4483,38.8402,46.633,41.2999)",39160,Asia,Western Asia,Հայաստան,Armenia,FALSE,3,"{ ""en"": [ ""Armenia"", ""Republic of Armenia"", ""🇦🇲"", ""ARM"" ], ""hy"": [ ""Հայաստան"", ""Հայք"", ""ՀՀ"", ""Հայաստանի Հանրապետություն"", ""🇦🇲"" ] }"
4919370,state,all,FO,,FRO,Q4628,"(2:-7.0174,62.1252)","(4:-7.6947,61.3921,-6.2572,62.3957)",3092,Europe,Northern Europe,Føroyar,Faroe Islands,FALSE,4,"{ ""en"": [ ""Faroe Islands"", ""Faeroe Islands"", ""Atlantic\/Faroe"", ""Fareo islands"", ""Faeroyene"", ""Far Oer"", ""Faeroerne"", ""Faer Oer"", ""Faroe Isles"", ""Faroer"", ""Färöer"", ""Faeroe Isles"", ""Faroes"", ""Faroese Islands"", ""Foroyar"", ""Faeroes"", ""Faeroer"", ""Føroyar"", ""Faroe Island"", ""The Faroe Islands"", ""Færøer"", ""Færeyjar"", ""Fær Øer"", ""Faeroe Is"", ""The Faeroe Islands"", ""Færøyene"", ""Færøerne"", ""Faröe Islands"", ""Sheep Islands"", ""Færoes"", ""fo"", ""🇫🇴"" ], ""fo"": [ ""Føroyar"", ""Føroyum"", ""Føroya"", ""Faroe Islands"" ] }"
5443669,state,all,GM,,GMB,Q1005,"(2:-15.9728,13.4365)","(4:-16.8133,13.0458,-13.7917,13.8266)",11731,Africa,Sub-Saharan Africa,The Gambia,Gambia,FALSE,1,"{ ""en"": [ ""Gambia"", ""gm"", ""Islamic Republic of the Gambia"", ""🇬🇲"", ""Republic of The Gambia"", ""The Gambia"", ""GAM"" ] }"
10162336,state,all,NA,,NAM,Q1030,"(2:17.2133,-23.1061)","(4:11.737,-28.9695,25.2562,-16.9635)",890791,Africa,Sub-Saharan Africa,Namibia,Namibia,FALSE,4,"{ ""af"": [ ""Namibië"", ""Republiek van Namibië"" ], ""en"": [ ""Namibia"", ""Republic of Namibia"", ""na"", ""🇳🇦"", ""NAM"" ] }"
6951013,state,all,ID,,IDN,Q252,"(2:113.3193,0.1133)","(4:95.01049999999999,-11.0097,141.0296,6.0769)",1914185,Asia,South-eastern Asia,Indonesia,Indonesia,FALSE,6,"{ ""en"": [ ""Indonesia"", ""Republic of Indonesia"", ""NKRI"", ""Negara Kesatuan Republik Indonesia"", ""Republik Indonesia"", ""ID"", ""IDN"", ""RI"", ""id"", ""🇮🇩"", ""INA"" ], ""id"": [ ""Indonesia"", ""Republik Indonesia"", ""Negara Kesatuan Republik Indonesia"", ""NKRI"", ""ID"", ""INA"", ""IDN"" ], ""jv"": [ ""Indonésia"" ], ""su"": [ ""Indonésia"" ] }"
9179279,state,all,MH,,MHL,Q709,"(2:171.3717,7.109)","(4:160.7953,4.5725,172.1725,14.7232)",314,Oceania,Micronesia,Marshall Islands,Marshall Islands,FALSE,2,"{ ""en"": [ ""Marshall Islands"", ""Republic of the Marshall Islands"", ""Aolepān Aorōkin M̧ajeļ"", ""mh"", ""🇲🇭"", ""MHL"" ], ""mh"": [ ""Majõl"", ""Aolepān Aorōkin M̧ajeļ"" ] }"
10752170,state,all,NU,,NIU,Q34020,"(2:-169.8494,-19.054)","(4:-169.9508,-19.1561,-169.7737,-18.9523)",283,Oceania,Polynesia,Niue,Niue,FALSE,3,"{ ""en"": [ ""Niue"", ""Niuē"", ""nu"", ""🇳🇺"" ] }"
8523905,state,all,LI,,LIE,Q347,"(2:9.547000000000001,47.1593)","(4:9.4717,47.0484,9.6356,47.2706)",235,Europe,Western Europe,Liechtenstein,Liechtenstein,FALSE,2,"{ ""de"": [ ""Liechtenstein"", ""Fürstentum Liechtenstein"", ""Fürstentum Lichtenstein"" ], ""en"": [ ""Liechtenstein"", ""LI"", ""Principality of Liechtenstein"", ""FL"", ""li"", ""🇱🇮"", ""LIE"" ], ""gsw"": [ ""Liachtaschta"" ] }"
11866294,dependent territory,all,PR,US,PRI,Q1183,"(2:-66.40389999999999,18.2218)","(4:-67.95140000000001,17.8814,-65.22110000000001,18.516)",9463,Americas,Latin America and the Caribbean,Puerto Rico,Puerto Rico,FALSE,4,"{ ""en"": [ ""Puerto Rico"", ""Estado Libre Asociado de Puerto Rico"", ""PR"", ""The Commonwealth of Puerto Rico"", ""🇵🇷"", ""Porto Rico"", ""Territory of Puerto Rico"", ""Commonwealth of Puerto Rico"" ], ""es"": [ ""Puerto Rico"", ""Estado Libre Asociado de Puerto Rico"", ""Territorio Estadounidense de Puerto Rico"" ] }"
11407536,state,all,PG,,PNG,Q691,"(2:144.3478,-6.6693)","(4:140.8424,-11.6554,155.9831,-1.3148)",468868,Oceania,Melanesia,Papua New Guinea,Papua New Guinea,FALSE,4,"{ ""en"": [ ""Papua New Guinea"", ""Independent State of Papua New Guinea"", ""PNG"", ""pg"", ""🇵🇬"" ], ""tpi"": [ ""Papua Niugini"" ] }"
7540850,state,US,JP,,JPN,Q17,"(2:139.8855,37.6006)","(4:122.9338,24.0457,145.8175,45.523)",473653,Asia,Eastern Asia,日本,Japan,FALSE,5,"{ ""en"": [ ""Japan"", ""State of Japan"", ""Land of the Rising Sun"", ""Nihon"", ""Nippon"", ""JP"", ""Nippon-koku"", ""Nihon-koku"", ""JA"", ""JPN"", ""🇯🇵"", ""jp"", ""JAP"", ""🗾"" ], ""ja"": [ ""日本"", ""日本国"", ""にほん"", ""にほんこく"", ""にっぽん"", ""にっぽんこく"" ] }"
14487780,state,IN,TW,,TWN,Q865,"(2:120.8354,23.609)","(4:114.3593,10.3713,122.1091,26.3853)",40091,Asia,Eastern Asia,台灣,Taiwan,FALSE,1,"{ ""en"": [ ""Taiwan"", ""ROC"", ""Chunghwa Minkwo"", ""Chunghwa Minkuo"", ""Formosa"", ""Republic of China"", ""Nationalist China"", ""Free China"", ""Free area of the Republic of China"", ""Republic of China (Taiwan)"", ""Chinese Taipei"", ""🇹🇼"", ""tw"" ], ""zh-hant"": [ ""中華民國"", ""自由中國"", ""臺灣"", ""臺澎金馬"", ""中華台北"", ""ROC"", ""台灣"", ""民國"", ""中華民國臺灣"" ] }"
14291141,state,all,SE,,SWE,Q34,"(2:14.9499,62.9927)","(4:10.9577,55.3367,24.1762,69.0599)",990948,Europe,Northern Europe,Sverige,Sweden,FALSE,1,"{ ""en"": [ ""Sweden"", ""Kingdom of Sweden"", ""SE"", ""se"", ""SWE"" ], ""sv"": [ ""Sverige"", ""Konungariket Sverige"", ""Kungariket Sverige"", ""Kungadömet Sverige"", ""SE"", ""SWE"" ] }"
3608618,state,all,CG,,COG,Q971,"(2:16.0718,-0.6664)","(4:11.1466,-5.0375,18.644,3.7122)",345037,Africa,Sub-Saharan Africa,République du Congo,Republic of the Congo,FALSE,2,"{ ""en"": [ ""Republic of the Congo"", ""Congo-Brazzaville"", ""Congo Republic"", ""République du Congo"", ""Republic of Congo"", ""cg"", ""Rep. Congo"", ""🇨🇬"", ""Republique du Congo"", ""Congo (Brazzaville)"", ""CGO"" ], ""fr"": [ ""République du Congo"", ""Congo"", ""Congo-Brazzaville"" ] }"
12521613,dependent territory,all,MF,FR,MAF,Q25596,"(2:-63.0507,18.0848)","(4:-63.1529,18.0447,-62.9703,18.1253)",52,Americas,Latin America and the Caribbean,Saint-Martin,Saint Martin,FALSE,7,"{ ""en"": [ ""Saint Martin"", ""St. Martin"" ], ""fr"": [ ""Saint-Martin"", ""Île de Saint-Martin"", ""Île de Saint Martin"" ] }"
7147622,state,all,IE,,IRL,Q27,"(2:-8.113200000000001,53.4616)","(4:-10.6613,51.422,-5.9941,55.4367)",115782,Europe,Northern Europe,Ireland - Éire,Ireland,FALSE,2,"{ ""en"": [ ""Ireland"", ""Éire"", ""IE"", ""IRL"", ""Republic of Ireland"", ""Hibernia"", ""Ireland, Republic of"", ""ie"", ""ireland"", ""🇮🇪"", ""Eire"", ""Southern Ireland"" ], ""fr"": [ ""Irlande"", ""République d'Irlande"", ""Eire"", ""Éire"", ""Republic of Ireland"", ""Ireland"" ], ""ga"": [ ""Poblacht na hÉireann"", ""Éire"" ] }"
135174,state,all,AL,,ALB,Q222,"(2:20.0221,41.1701)","(4:19.2635,39.6449,21.0569,42.6603)",38143,Europe,Southern Europe,Shqipëria,Albania,FALSE,1,"{ ""en"": [ ""Albania"", ""Republic of Albania"", ""al"", ""Republika e Shqipërisë"", ""Shqipërisë"", ""🇦🇱"", ""ALB"" ], ""sq"": [ ""Shqipëria"", ""Republika e Shqipërisë"" ] }"
14553307,state,all,TJ,,TJK,Q863,"(2:70.94499999999999,38.8917)","(4:67.34220000000001,36.6718,75.1558,41.0442)",181309,Asia,Central Asia,Тоҷикистон,Tajikistan,FALSE,3,"{ ""en"": [ ""Tajikistan"", ""Republic of Tajikistan"", ""tj"", ""🇹🇯"", ""TJK"" ], ""ru"": [ ""Таджикистан"", ""Республика Таджикистан"" ], ""tg"": [ ""Тоҷикистон"", ""Ҷумҳурии Тоҷикистон"" ] }"
15798512,dependent territory,all,VI,US,VIR,Q26262,"(2:-64.75920000000001,17.7289)","(4:-65.0853,17.674,-64.5652,18.413)",370,Americas,Latin America and the Caribbean,Virgin Islands,Virgin Islands,FALSE,4,"{ ""en"": [ ""Virgin Islands"" ] }"
5115979,state,all,FR,,FRA,Q142,"(2:2.1592,46.8894)","(4:-5.143,41.3333,9.5603,51.0892)",795594,Europe,Western Europe,France,France,FALSE,7,"{ ""en"": [ ""France"", ""fr"", ""FR"", ""🇫🇷"", ""République française"", ""La France"", ""Republic of France"", ""French Republic"", ""FRA"" ], ""es"": [ ""Francia"", ""República Francesa"", ""Republica Francesa"" ], ""fr"": [ ""France"", ""FR"", ""République française"", ""FRA"", ""RF"", ""🇫🇷"", ""fr"", ""l'Hexagone"" ] }"
4329533,state,all,DO,,DOM,Q786,"(2:-70.1246,18.7721)","(4:-72.0094,17.4703,-68.32340000000001,19.9324)",51251,Americas,Latin America and the Caribbean,República Dominicana,Dominican Republic,FALSE,5,"{ ""en"": [ ""Dominican Republic"", ""República Dominicana"", ""🇩🇴"", ""RD"", ""DR"", ""Republica Dominicana"" ], ""es"": [ ""República Dominicana"", ""Republica Dominicana"" ] }"
9375898,state,all,MU,,MUS,Q1027,"(2:57.5902,-20.2529)","(4:56.5853,-20.5248,63.5033,-10.3372)",2165,Africa,Sub-Saharan Africa,Mauritius,Mauritius,FALSE,1,"{ ""en"": [ ""Mauritius"", ""Republic of Mauritius"", ""Maurice"", ""Moris"", ""mu"", ""🇲🇺"", ""MRI"" ], ""bho"": [ ""मॉरिशस"", ""मारिशस"" ] }"
3346486,dependent territory,all,CX,AU,CXR,Q31063,"(2:105.6169,-10.4914)","(4:105.5333,-10.5705,105.7126,-10.4124)",139,Oceania,Australia and New Zealand,Christmas Island,Christmas Island,FALSE,1,"{ ""en"": [ ""Christmas Island"", ""cx"", ""🇨🇽"", ""Christmas Island, Other Territories"", ""Christmas Island, Other Territories, Australia"" ] }"
7409708,state,all,CI,,CIV,Q1008,"(2:-5.5573,7.5616)","(4:-8.6029,4.3609,-2.4947,10.7397)",327143,Africa,Sub-Saharan Africa,Côte d’Ivoire,Ivory Coast,FALSE,4,"{ ""en"": [ ""Ivory Coast"", ""Republic of Côte d'Ivoire"", ""ci"", ""Cote d'Ivoire"", ""🇨🇮"", ""Côte d'Ivoire"", ""Republic of Cote d'Ivoire"", ""Côte-d'Ivoire"", ""Côte D'Ivoire"", ""Cote D'Ivoire"", ""Cote d'lvoire"", ""Ivory coast"", ""Cote D' Ivoire"", ""Cote d' Ivoire"", ""Côte d’Ivoire"", ""Côte d'Ivorie"", ""Côte d'ivoire"", ""Cote d'ivoire"", ""Cote d´Ivoire"", ""Cote d ivoire"", ""Cote divoire"", ""Cote Ivoire"", ""Cote d’Ivoire"", ""République de Côte d'Ivoire"", ""Republic of Ivory Coast"", ""Cote Divoire"", ""Cote-d'Ivoire"", ""Cote d'ivore"", ""Cote dIvoire"", ""Côte d´Ivoire"", ""Côte Divoire"", ""Côte D'ivoire"", ""Republic of the Ivory Coast"", ""The Ivory Coast"", ""CIV"" ], ""fr"": [ ""Côte d'Ivoire"", ""Côte d’Ivoire"", ""Côte-d’Ivoire"", ""Côte-d'Ivoire"" ] }"
1577460,disputed area,CN,D0INPK2,,,,"(2:76.503,33.9882)","(4:73.75,32.2722,79.30589999999999,35.6733)",128240,,,Indian-administered Kashmir,Indian-administered Kashmir,TRUE,,
9769107,state,all,MN,,MNG,Q711,"(2:105.2046,47.1285)","(4:87.7367,41.5827,119.9322,52.1514)",2281619,Asia,Eastern Asia,Монгол Улс,Mongolia,FALSE,3,"{ ""en"": [ ""Mongolia"", ""mn"", ""Mongol uls"", ""MNG"", ""🇲🇳"", ""MGL"" ], ""mn"": [ ""Монгол улс"", ""Монгол"" ] }"
6426718,state,all,GY,,GUY,Q734,"(2:-58.9506,4.8622)","(4:-61.3918,1.1701,-56.4917,8.5349)",213209,Americas,Latin America and the Caribbean,Guyana,Guyana,FALSE,3,"{ ""en"": [ ""Guyana"", ""Co-operative Republic of Guyana"", ""gy"", ""Republic of Guyana"", ""🇬🇾"", ""GUY"" ] }"
6033495,state,all,GP,,GLP,Q17012,"(2:-61.6777,16.1542)","(4:-61.8094,15.8323,-61.0019,16.5145)",1711,Americas,Latin America and the Caribbean,Guadeloupe,Guadeloupe,FALSE,7,"{ ""en"": [ ""Guadeloupe"", ""gp"", ""🇬🇵"" ], ""fr"": [ ""Guadeloupe"", ""971"" ] }"
9506973,state,all,MX,,MEX,Q96,"(2:-102.3697,23.9442)","(4:-118.3643,14.53,-86.7105,32.7188)",2168490,Americas,Latin America and the Caribbean,México,Mexico,FALSE,6,"{ ""en"": [ ""Mexico"", ""MX"", ""mx"", ""🇲🇽"", ""United Mexican States"", ""Mexican Republic"", ""MEX"" ], ""es"": [ ""México"", ""mx"", ""Méjico"", ""Mejico"", ""Estados Unidos Mexicanos"", ""MX"", ""MEX"", ""Mexico"", ""Republica Mexicana"", ""República Mexicana"" ] }"
11341997,state,all,PA,,PAN,Q804,"(2:-81.4812,8.420199999999999)","(4:-83.05159999999999,7.2042,-77.13939999999999,9.6457)",76373,Americas,Latin America and the Caribbean,Panama,Panama,FALSE,4,"{ ""en"": [ ""Panama"", ""Republic of Panama"", ""pa"", ""🇵🇦"" ], ""es"": [ ""Panamá"", ""República de Panamá"" ] }"
14487780,state,JP,TW,,TWN,Q865,"(2:120.8354,23.609)","(4:114.3593,10.3713,122.1091,26.3853)",40091,Asia,Eastern Asia,台灣,Taiwan,FALSE,1,"{ ""en"": [ ""Taiwan"", ""ROC"", ""Chunghwa Minkwo"", ""Chunghwa Minkuo"", ""Formosa"", ""Republic of China"", ""Nationalist China"", ""Free China"", ""Free area of the Republic of China"", ""Republic of China (Taiwan)"", ""Chinese Taipei"", ""🇹🇼"", ""tw"" ], ""zh-hant"": [ ""中華民國"", ""自由中國"", ""臺灣"", ""臺澎金馬"", ""中華台北"", ""ROC"", ""台灣"", ""民國"", ""中華民國臺灣"" ] }"
1118231,state,all,BH,,BHR,Q398,"(2:50.5534,26.025)","(4:50.3152,25.5717,50.8245,26.4229)",858,Asia,Western Asia,البحرين,Bahrain,FALSE,1,"{ ""ar"": [ ""البحرين"", ""مملكة البحرين"" ], ""en"": [ ""Bahrain"", ""bh"", ""Kingdom of Bahrain"", ""🇧🇭"", ""BAH"" ] }"
7868534,state,all,KI,,KIR,Q710,"(2:-157.371,1.8709)","(4:-174.5434,-11.4479,176.8485,4.6994)",1021,Oceania,Micronesia,Kiribati,Kiribati,FALSE,5,"{ ""en"": [ ""Kiribati"", ""Republic of Kiribati"", ""🇰🇮"", ""ki"", ""KIR"" ] }"
12980429,state,all,SN,,SEN,Q1041,"(2:-14.6562,14.5118)","(4:-17.5301,12.3068,-11.3463,16.6916)",203620,Africa,Sub-Saharan Africa,Sénégal,Senegal,FALSE,2,"{ ""en"": [ ""Senegal"", ""Republic of Senegal"", ""République du Sénégal"", ""sn"", ""Sénégal"", ""🇸🇳"", ""Republique du Senegal"", ""SEN"" ], ""ff"": [ ""Senegaal"" ], ""fr"": [ ""Sénégal"", ""La République du Sénégal"" ], ""wo"": [ ""Senegaal"" ] }"
4460609,state,all,EG,,EGY,Q79,"(2:29.4676,26.9406)","(4:24.6929,21.9993,36.8944,31.6717)",1121082,Africa,Northern Africa,مصر,Egypt,FALSE,4,"{ ""ar"": [ ""مصر"", ""جمهوريّة مصرالعربيّة"", ""جمهورية مصر العربية"" ], ""en"": [ ""Egypt"", ""Republic of Egypt"", ""eg"", ""EGY"", ""🇪🇬"", ""Arab Republic of Egypt"", ""Arab Rep. Egypt"", ""Rep. Egypt"" ], ""arz"": [ ""مصر"" ] }"
332276,disputed area,all,D0ILSY1,,,,"(2:35.749,33.008)","(4:35.6118,32.6823,35.8962,33.333)",1370,,,Golan Heights,Golan Heights,TRUE,,
1642529,state,CN,BT,,BTN,Q917,"(2:90.3571,27.473)","(4:88.7683,26.6948,92.124,28.2458)",43658,Asia,Southern Asia,འབྲུགཡུལ་,Bhutan,FALSE,5,"{ ""dz"": [ ""འབྲུག་ཡུལ་"", ""འབྲུགཡུལ་་"" ], ""en"": [ ""Bhutan"", ""Kingdom of Bhutan"", ""bt"", ""🇧🇹"", ""BHU"" ], ""ne"": [ ""भुटान"" ] }"
528884,disputed area,JP,D0BTCN1,,,,"(2:90.2383,28.2113)","(4:89.8182,28.0606,90.61490000000001,28.3608)",1440,,,Kula Kangri,Kula Kangri,TRUE,,
1315316,disputed area,JP,D0CNIN6,,,,"(2:78.6587,32.0285)","(4:78.4284,31.7806,78.7796,32.2759)",494,,,Kauirik disputed area,Kauirik disputed area,TRUE,,
2428952,state,all,BI,,BDI,Q967,"(2:29.9633,-3.3895)","(4:29.0007,-4.4677,30.8483,-2.31)",26936,Africa,Sub-Saharan Africa,Burundi,Burundi,FALSE,2,"{ ""en"": [ ""Burundi"", ""Republic of Burundi"", ""bi"", ""🇧🇮"", ""Republika y'Uburundi"", ""Gouvernement du Burundi"", ""BDI"" ], ""fr"": [ ""Burundi"", ""République du Burundi"" ], ""rn"": [ ""Uburundi"", ""Republika y'Uburundi"" ] }"
1445925,state,all,BZ,,BLZ,Q242,"(2:-88.72709999999999,17.1949)","(4:-89.22499999999999,15.8859,-87.486,18.4958)",23325,Americas,Latin America and the Caribbean,Belize,Belize,FALSE,1,"{ ""en"": [ ""Belize"", ""bz"", ""🇧🇿"" ], ""es"": [ ""Belice"" ] }"
528884,disputed area,IN,D0BTCN1,,,,"(2:90.2383,28.2113)","(4:89.8182,28.0606,90.61490000000001,28.3608)",1440,,,Kula Kangri,Kula Kangri,TRUE,,
1577460,disputed area,US,D0INPK2,,,,"(2:76.503,33.9882)","(4:73.75,32.2722,79.30589999999999,35.6733)",128240,,,Indian-administered Kashmir,Indian-administered Kashmir,TRUE,,
3084336,state,US,CN,,CHN,Q148,"(2:100.5057,38.8017)","(4:73.5013,7.3643,134.7734,53.5604)",11649405,Asia,Eastern Asia,中国,China,FALSE,4,"{ ""en"": [ ""People's Republic of China"", ""China"", ""CN"", ""PR China"", ""PRC"", ""cn"", ""CHN"", ""Communist China"", ""🇨🇳"" ], ""zh"": [ ""中华人民共和国"", ""中国"", ""中國"", ""中華人民共和國"", ""共产中国"", ""新中国"", ""中華人民共和國／中华人民共和国"", ""中"" ] }"
856564,disputed area,US,D0CNIN7,,,,"(2:78.791,31.3804)","(4:78.7495,31.294,78.86020000000001,31.4674)",106,,,Shipki Pass disputed area,Shipki Pass disputed area,TRUE,,
5247151,dependent territory,all,PF,FR,PYF,Q30971,"(2:-149.4451,-17.688)","(4:-154.7272,-27.9005,-134.4511,-7.895)",4633,Oceania,Polynesia,Polynésie Française,French Polynesia,FALSE,7,"{ ""en"": [ ""French Polynesia"", ""pf"", ""🇵🇫"" ], ""fr"": [ ""Polynésie française"", ""Établissements français de l'Océanie"", ""Polynésie Francaise"", ""Établissements français de l’Océanie"", ""F-OH"", ""Polynesie francaise"", ""987"" ], ""ty"": [ ""Pōrīnetia farāni"" ] }"
790542,state,all,AW,,ABW,Q21203,"(2:-69.98180000000001,12.5176)","(4:-70.0637,12.4118,-69.8657,12.6234)",185,Americas,Latin America and the Caribbean,Aruba,Aruba,FALSE,4,"{ ""en"": [ ""Aruba"", ""ISO 3166-1:AW"", ""America\/Aruba"", ""Island of Aruba"", ""aw"", ""🇦🇼"", ""ARU"" ], ""nl"": [ ""Aruba"", ""AW"", ""ABW"" ], ""pap"": [ ""Aruba"" ] }"
7606383,state,all,JE,,JEY,Q785,"(2:-2.1258,49.213)","(4:-2.2545,49.1631,-2.017,49.2623)",186,Europe,Northern Europe,Jersey,Jersey,FALSE,6,"{ ""en"": [ ""Jersey"", ""Balliwick of Jersey"", ""je"", ""Bailiwick of Jersey"", ""🇯🇪"" ] }"
13701210,dependent territory,all,GS,UK,SGS,Q35086,"(2:-36.4992,-54.4399)","(4:-42.2024,-59.4855,-26.2675,-53.3417)",7350,Americas,Latin America and the Caribbean,South Georgia and South Sandwich Islands,South Georgia and South Sandwich Islands,FALSE,6,"{ ""en"": [ ""South Georgia and the South Sandwich Islands"", ""South Georgia"", ""South Sandwich Islands"", ""gs"", ""SGSSI"", ""🇬🇸"", ""South Georgia and South Sandwich Islands"" ] }"
13177035,state,all,SL,,SLE,Q1044,"(2:-11.875,8.4655)","(4:-13.3064,6.9246,-10.2741,10.0001)",73816,Africa,Sub-Saharan Africa,Sierra Leone,Sierra Leone,FALSE,1,"{ ""en"": [ ""Sierra Leone"", ""Republic of Sierra Leone"", ""sl"", ""🇸🇱"", ""SLE"" ] }"
1577460,disputed area,JP,D0INPK2,,,,"(2:76.503,33.9882)","(4:73.75,32.2722,79.30589999999999,35.6733)",128240,,,Indian-administered Kashmir,Indian-administered Kashmir,TRUE,,
12193984,state,all,RW,,RWA,Q1037,"(2:29.9879,-1.9431)","(4:28.862,-2.8388,30.8993,-1.0479)",25346,Africa,Sub-Saharan Africa,Rwanda,Rwanda,FALSE,5,"{ ""en"": [ ""Rwanda"", ""Republic of Rwanda"", ""rw"", ""🇷🇼"" ], ""rw"": [ ""Rwanda"", ""Repubulika y'u Rwanda"" ] }"
11210937,state,all,PW,,PLW,Q695,"(2:134.5573,7.5288)","(4:131.1199,2.9715,134.7214,8.094099999999999)",492,Oceania,Micronesia,Belau,Palau,FALSE,2,"{ ""en"": [ ""Palau"", ""Republic of Palau"", ""Belau"", ""Pelew"", ""pw"", ""Republic of Belau"", ""🇵🇼"" ] }"
1642529,state,IN,BT,,BTN,Q917,"(2:90.3415,27.473)","(4:88.7683,26.6948,92.124,28.2458)",43846,Asia,Southern Asia,འབྲུགཡུལ་,Bhutan,FALSE,5,"{ ""dz"": [ ""འབྲུག་ཡུལ་"", ""འབྲུགཡུལ་་"" ], ""en"": [ ""Bhutan"", ""Kingdom of Bhutan"", ""bt"", ""🇧🇹"", ""BHU"" ], ""ne"": [ ""भुटान"" ] }"
66064479,state,IN,HK,,HKG,Q8646,"(2:114.0599,22.4114)","(4:113.8351,22.1539,114.4417,22.562)",1214,Asia,Eastern Asia,香港,Hong Kong,FALSE,4,"{ ""en"": [ ""Hong Kong"", ""HKSAR"", ""HKG"", ""HK"", ""Hong Kong SAR"", ""China Hong Kong"", ""Hong Kong, China"", ""hk"", ""Hong Kong SAR, China"", ""🇭🇰"", ""Hong Kong Special Administrative Region"" ], ""yue"": [ ""香港"", ""香港特別行政區"", ""香港特區"", ""中國香港"" ], ""zh-hant"": [ ""香港"", ""香港特別行政區"", ""香港特區"", ""中國香港"" ] }"
4526290,state,all,SV,,SLV,Q792,"(2:-88.9105,13.802)","(4:-90.1326,13.1524,-87.6905,14.4497)",21644,Americas,Latin America and the Caribbean,El Salvador,El Salvador,FALSE,1,"{ ""en"": [ ""El Salvador"", ""sv"", ""🇸🇻"", ""Republic of El Salvador"", ""ESA"" ], ""es"": [ ""El Salvador"", ""República de El Salvador"", ""Republica de El Salvador"" ] }"
2822268,dependent territory,all,KY,UK,CYM,Q5785,"(2:-81.17149999999999,19.3299)","(4:-81.42059999999999,19.2632,-79.723,19.7567)",284,Americas,Latin America and the Caribbean,Cayman Islands,Cayman Islands,FALSE,6,"{ ""en"": [ ""Cayman Islands"", ""ky"", ""🇰🇾"", ""CAY"" ] }"
16257267,dependent territory,all,WF,FR,WLF,Q35555,"(2:-176.2086,-13.2859)","(4:-178.1824,-14.3622,-176.1242,-13.1828)",153,Oceania,Polynesia,Wallis-et-Futuna,Wallis and Futuna,FALSE,7,"{ ""en"": [ ""Wallis and Futuna"", ""wf"", ""🇼🇫"" ], ""fr"": [ ""Wallis-et-Futuna"", ""Wallis et Futuna"", ""Emeni Simete"", ""Îles Wallis et Futuna"", ""Makape Papilio"", ""Île de Futuna"", ""986"", ""Collectivité des Îles Wallis et Futuna"" ] }"
11669685,state,all,PN,,PCN,Q35672,"(2:-128.3268,-24.376)","(4:-130.7562,-25.0798,-124.772,-23.9077)",59,Oceania,Polynesia,Pitcairn Islands,Pitcairn Islands,FALSE,6,"{ ""en"": [ ""Pitcairn Islands"", ""pn"", ""🇵🇳"", ""Pitcairn, Henderson, Ducie and Oeno Islands"" ] }"
2167023,dependent territory,all,VG,UK,VGB,Q25305,"(2:-64.64,18.4204)","(4:-64.8501,18.3064,-64.2706,18.7497)",164,Americas,Latin America and the Caribbean,British Virgin Islands,British Virgin Islands,FALSE,6,"{ ""en"": [ ""British Virgin Islands"", ""Virgin Islands"", ""BVI"", ""vg"", ""🇻🇬"", ""IVB"" ] }"
16126190,state,all,VE,,VEN,Q717,"(2:-65.43519999999999,6.4568)","(4:-73.35290000000001,0.6514,-59.8065,12.4912)",927706,Americas,Latin America and the Caribbean,Venezuela,Venezuela,FALSE,1,"{ ""en"": [ ""Venezuela"", ""Bolivarian Republic of Venezuela"", ""BR Venezuela"", ""VE"", ""🇻🇪"", ""Estados Unidos de Venezuela"", ""Vzla"", ""VEN"" ], ""es"": [ ""Venezuela"", ""RB Venezuela"", ""VE"", ""La República Bolivarana de Venezuela"", ""Estados Unidos de Venezuela"", ""Republica Bolivariana de Venezuela"", ""La Republica Bolivarana de Venezuela"", ""La República Bolivariana de Venezuela"", ""La Republica Bolivariana de Venezuela"", ""República Bolivariana de Venezuela"", ""Vzla"" ] }"
6557795,state,all,HT,,HTI,Q790,"(2:-72.29510000000001,18.9902)","(4:-74.4806,18.0214,-71.622,20.0894)",28641,Americas,Latin America and the Caribbean,Haïti,Haiti,FALSE,2,"{ ""en"": [ ""Haiti"", ""Republic of Haiti"", ""ht"", ""Hayti"", ""HT"", ""République d'Haïti"", ""Haitian Republic"", ""Ayiti"", ""🇭🇹"", ""HAI"" ], ""ht"": [ ""Ayiti"", ""Repiblik d Ayiti"" ] }"
7082091,state,all,IQ,,IRQ,Q796,"(2:42.461,33.3185)","(4:38.7923,29.0583,48.6128,37.3815)",522150,Asia,Western Asia,العراق,Iraq,FALSE,1,"{ ""ar"": [ ""العراق"", ""الجمهورية العراقية"", ""سواره توكه"" ], ""en"": [ ""Iraq"", ""Republic of Iraq"", ""al-‘Irāq"", ""Jumhūriyyat al-‘Irāq"", ""Komar-i ‘Êraq"", ""iq"", ""🇮🇶"", ""IRQ"" ], ""ckb"": [ ""عێراق"" ] }"
13439176,state,all,SI,,SVN,Q215,"(2:14.634,46.1541)","(4:13.3757,45.4216,16.6118,46.8768)",29228,Europe,Southern Europe,Slovenija,Slovenia,FALSE,2,"{ ""de"": [ ""Slowenien"", ""Republik Slowenien"" ], ""en"": [ ""Slovenia"", ""Slovenija"", ""Republika Slovenija"", ""si"", ""🇸🇮"", ""svn"", ""slo"", ""Republic of Slovenia"", ""SLO"" ], ""hr"": [ ""Slovenija"" ], ""sl"": [ ""Slovenija"", ""Republika Slovenija"" ] }"
7802995,state,US,KE,,KEN,Q114,"(2:37.4854,0.1774)","(4:33.9216,-4.6913,41.9109,5.0334)",590477,Africa,Sub-Saharan Africa,Kenya,Kenya,FALSE,5,"{ ""en"": [ ""Kenya"", ""Republic of Kenya"", ""KE"", ""KEN"", ""ke"", ""🇰🇪"" ], ""ki"": [ ""Kenya"" ], ""sw"": [ ""Kenya"", ""Jamhuri ya Kenya"" ] }"
10293416,state,all,NP,,NPL,Q837,"(2:83.0746,28.4212)","(4:80.05549999999999,26.3546,88.2016,30.448)",168299,Asia,Southern Asia,Nepal,Nepal,FALSE,2,"{ ""en"": [ ""Nepal"", ""NPL"", ""Federal Democratic Republic of Nepal"", ""NEP"", ""NP"", ""🇳🇵"" ], ""ne"": [ ""नेपाल"", ""स‌ंघिय लोकतान्त्रिक गणतन्त्र नेपाल"", ""संघिय लोकतान्त्रिक गणतन्त्रात्मक नेपाल"" ], ""mai"": [ ""नेपाल"", ""सङ्घीय लोकतान्त्रिक गणतन्त्र नेपाल"" ] }"
13111491,state,all,SC,,SYC,Q1042,"(2:55.4924,-4.6841)","(4:46.2029,-10.2271,56.2947,-3.7129)",498,Africa,Sub-Saharan Africa,Seychelles,Seychelles,FALSE,5,"{ ""en"": [ ""Seychelles"", ""Republic of Seychelles"", ""sc"", ""🇸🇨"", ""SEY"" ], ""fr"": [ ""Seychelles"", ""République des Seychelles"", ""Repiblik Sesel"", ""🇸🇨"", ""sc"", ""SEY"" ] }"
200766,state,all,DZ,,DZA,Q262,"(2:0.5969,28.4756)","(4:-8.667999999999999,18.9562,11.9942,37.0897)",2639266,Africa,Northern Africa,الجزائر,Algeria,FALSE,5,"{ ""ar"": [ ""الجزائر"", ""الجمهورية الجزائرية الديمقراطية الشعبية"" ], ""en"": [ ""Algeria"", ""People’s Democratic Republic of Algeria"", ""dz"", ""🇩🇿"", ""ALG"" ], ""fr"": [ ""Algérie"", ""République algérienne démocratique et populaire"", ""RADP"", ""dz"", ""Algerie"" ] }"
11735219,state,all,PL,,POL,Q36,"(2:19.1972,52.0136)","(4:14.1229,49.002,24.1458,54.8358)",509240,Europe,Eastern Europe,Polska,Poland,FALSE,3,"{ ""de"": [ ""Polen"", ""Republik Polen"" ], ""en"": [ ""Poland"", ""POL"", ""Republic of Poland"", ""PL"", ""Polska"", ""🇵🇱"" ], ""pl"": [ ""Polska"", ""Rzeczpospolita Polska"", ""RP"", ""POL"", ""PL"" ], ""ru"": [ ""Польша"", ""Polska"", ""Республика Польша"" ] }"
12390520,state,all,KN,,KNA,Q763,"(2:-62.7446,17.3156)","(4:-62.8642,17.094,-62.5394,17.4177)",276,Americas,Latin America and the Caribbean,Saint Kitts and Nevis,Saint Kitts and Nevis,FALSE,1,"{ ""en"": [ ""Saint Kitts and Nevis"", ""Saint Christopher and Nevis"", ""Federation of Saint Kitts and Nevis"", ""kn"", ""St. Kitts and Nevis"", ""St Kitts and Nevis"", ""🇰🇳"" ] }"
13045950,state,JP,RS,,SRB,Q403,"(2:21.0101,44.2456)","(4:18.838,42.2357,23.006,46.1898)",108170,Europe,Southern Europe,Србија,Serbia,FALSE,3,"{ ""en"": [ ""Serbia"", ""🇷🇸"", ""Republic of Serbia"", ""Republika Srbija"", ""rs"", ""Srbija"", ""SRB"" ], ""sq"": [ ""Serbia"", ""Republika e Serbisë"" ], ""sr"": [ ""Србија"", ""Република Србија"", ""rs"", ""Republika Srbija"" ], ""sr-ec"": [ ""Србија"" ], ""sr-el"": [ ""Srbija"" ] }"
6885481,state,JP,IN,,IND,Q668,"(2:79.5556,22.5605)","(4:68.17449999999999,6.756,97.3954,35.6733)",3484254,Asia,Southern Asia,India,India,FALSE,1,"{ ""en"": [ ""India"", ""Bharat"", ""Hindustan"", ""Bharatvarsh"", ""in"", ""IN"", ""Republic of India"", ""🇮🇳"", ""IND"" ], ""hi"": [ ""भारत"", ""हिंदुस्तान"", ""भारतवर्ष"", ""इंडिया"", ""भारत गणराज्य"", ""इण्डिया"", ""हिन्दोस्तान"", ""हिन्दुस्तान"", ""आर्यवर्त"" ] }"
10621090,state,all,NE,,NER,Q1032,"(2:9.891299999999999,17.5768)","(4:0.1673,11.6961,15.9979,23.518)",1248250,Africa,Sub-Saharan Africa,Niger,Niger,FALSE,4,"{ ""en"": [ ""Niger"", ""Republic of Niger"", ""Republic Niger"", ""ne"", ""🇳🇪"", ""The Niger"", ""Republic of The Niger"" ], ""fr"": [ ""Niger"", ""République du Niger"", ""NIG"", ""NE"", ""ne"", ""🇳🇪"" ], ""ha"": [ ""Nijar"" ] }"
3805282,state,all,HR,,HRV,Q224,"(2:15.3255,44.7753)","(4:13.4898,42.3922,19.4473,46.5549)",80481,Europe,Southern Europe,Hrvatska,Croatia,FALSE,5,"{ ""en"": [ ""Croatia"", ""Republic of Croatia"", ""HR"", ""HRV"", ""hr"", ""🇭🇷"", ""CRO"" ], ""hr"": [ ""Hrvatska"", ""Republika Hrvatska"" ] }"
15012066,state,all,TT,,TTO,Q754,"(2:-61.2604,10.4435)","(4:-61.9305,10.0424,-60.4924,11.3584)",5263,Americas,Latin America and the Caribbean,Trinidad and Tobago,Trinidad and Tobago,FALSE,5,"{ ""en"": [ ""Trinidad and Tobago"", ""Republic of Trinidad and Tobago"", ""tt"", ""🇹🇹"", ""TTO"" ] }"
15995122,state,all,VU,,VUT,Q686,"(2:167.051,-15.1569)","(4:166.5414,-20.2532,170.2402,-13.0725)",12996,Oceania,Melanesia,Vanuatu,Vanuatu,FALSE,6,"{ ""bi"": [ ""Vanuatu"" ], ""en"": [ ""Vanuatu"", ""Republic of Vanuatu"", ""vu"", ""🇻🇺"", ""vut"", ""van"", ""VAN"" ], ""fr"": [ ""Vanuatu"", ""République de Vanuatu"" ] }"
7540850,state,CN,JP,,JPN,Q17,"(2:139.8855,37.6006)","(4:122.9338,24.0457,145.8175,45.523)",473647,Asia,Eastern Asia,日本,Japan,FALSE,5,"{ ""en"": [ ""Japan"", ""State of Japan"", ""Land of the Rising Sun"", ""Nihon"", ""Nippon"", ""JP"", ""Nippon-koku"", ""Nihon-koku"", ""JA"", ""JPN"", ""🇯🇵"", ""jp"", ""JAP"", ""🗾"" ], ""ja"": [ ""日本"", ""日本国"", ""にほん"", ""にほんこく"", ""にっぽん"", ""にっぽんこく"" ] }"
4395071,state,all,EC,,ECU,Q736,"(2:-78.27249999999999,-1.7987)","(4:-92.0081,-5.0161,-75.1944,1.6817)",257928,Americas,Latin America and the Caribbean,Ecuador,Ecuador,FALSE,1,"{ ""en"": [ ""Ecuador"", ""Republic of Ecuador"", ""ec"", ""ecu"", ""ECU"", ""EC"", ""Republic of the Equator"", ""The Ecuadorian State"", ""🇪🇨"" ], ""es"": [ ""Ecuador"", ""Republica del Ecuador"", ""República del Ecuador"", ""ECU"", ""EC"", ""ecu"", ""ec"", ""el Ecuador"", ""Estado Ecuatoriano"" ], ""qu"": [ ""Ecuador"", ""Ikwayur Runaq Imayka"", ""ECU"", ""EC"", ""ecu"", ""ec"" ] }"
5836889,state,all,GR,,GRC,Q41,"(2:21.7609,39.1182)","(4:19.3728,34.8006,29.6457,41.7489)",170162,Europe,Southern Europe,Ελλάδα,Greece,FALSE,2,"{ ""el"": [ ""Ελλάδα"", ""Ελλάς"", ""Ελληνική Δημοκρατία"", ""Δημοκρατία της Ελλάδας"", ""Δημοκρατία της Ελλάδος"", ""Γραικία"" ], ""en"": [ ""Greece"", ""Hellenic Republic"", ""Hellas"", ""gr"", ""🇬🇷"", ""Greek Republic"", ""GRE"" ] }"
8065140,state,all,KG,,KGZ,Q813,"(2:75.0168,41.2558)","(4:69.26390000000001,39.1824,80.2504,43.2655)",265841,Asia,Central Asia,Кыргызстан,Kyrgyzstan,FALSE,5,"{ ""en"": [ ""Kyrgyzstan"", ""Kyrgyz Republic"", ""kg"", ""Kirgizia"", ""🇰🇬"", ""KGZ"" ], ""ky"": [ ""Кыргызстан"", ""Кыргыз Республикасы, Kyrgyz Respublikasy"" ], ""ru"": [ ""Киргизия"", ""Киргизская Республика"", ""Кыргызская Республика"", ""Кыргызстан"" ] }"
9441528,dependent territory,all,YT,FR,MYT,Q17063,"(2:45.1494,-12.8252)","(4:45.0182,-13.0058,45.2999,-12.636)",401,Africa,Sub-Saharan Africa,Mayotte,Mayotte,FALSE,7,"{ ""en"": [ ""Mayotte"", ""Department of Mayotte"", ""yt"", ""🇾🇹"" ], ""fr"": [ ""Mayotte"", ""976"" ] }"
7737469,state,all,KZ,,KAZ,Q232,"(2:66.572,48.5488)","(4:46.4929,40.5688,87.3147,55.4454)",4064264,Asia,Central Asia,Қазақстан,Kazakhstan,FALSE,6,"{ ""en"": [ ""Kazakhstan"", ""Republic of Kazakhstan"", ""kz"", ""Qazaqstan"", ""🇰🇿"", ""KAZ"" ], ""kk"": [ ""Қазақстан"", ""Қазақстан Республикасы"", ""Қазақстан Республикасы '"" ], ""ru"": [ ""Казахстан"", ""Республика Казахстан"", ""РК"" ] }"
5574713,state,all,DE,,DEU,Q183,"(2:10.5807,51.3283)","(4:5.8663,47.2702,15.0418,55.0568)",567005,Europe,Western Europe,Deutschland,Germany,FALSE,2,"{ ""de"": [ ""Deutschland"", ""BR Deutschland"", ""BRD"", ""Bundesrepublik Deutschland"" ], ""en"": [ ""Germany"", ""FRG"", ""BRD"", ""Bundesrepublik Deutschland"", ""Federal Republic of Germany"", ""de"", ""🇩🇪"", ""Deutschland"", ""GER"" ], ""fr"": [ ""Allemagne"", ""RFA"", ""République fédérale allemande"", ""République fédérale d'Allemagne"" ], ""bar"": [ ""Deitschland"" ], ""nds"": [ ""Düütschland"" ] }"
1315316,disputed area,US,D0CNIN6,,,,"(2:78.6587,32.0285)","(4:78.4284,31.7806,78.7796,32.2759)",494,,,Kauirik disputed area,Kauirik disputed area,TRUE,,
1708532,disputed area,US,D0KESS1,,,,"(2:35.3474,5.0562)","(4:34.4136,4.6246,35.9353,5.5039)",6286,,,Ilemi Triangle,Ilemi Triangle,TRUE,,
5050438,state,all,FI,,FIN,Q33,"(2:27.5283,65.4504)","(4:20.5471,59.6761,31.5879,70.0924)",760676,Europe,Northern Europe,Suomi,Finland,FALSE,4,"{ ""de"": [ ""Finnland"", ""Finland"", ""Suomi"", ""Republik Finnland"", ""Suomen tasavalta"", ""Republiken Finland"" ], ""en"": [ ""Finland"", ""Republic of Finland"", ""Finlande"", ""Finlandia"", ""Finnland"", ""Finnia"", ""Land of Thousand Lakes"", ""fi"", ""Suomi"", ""Suomen tasavalta"", ""Republiken Finland"", ""🇫🇮"", ""FIN"" ], ""fi"": [ ""Suomi"", ""Suomen tasavalta"", ""Finland"", ""Republiken Finland"" ], ""sv"": [ ""Finland"", ""Republiken Finland"", ""Suomi"", ""Suomen tasavalta"" ] }"
1774068,disputed area,IN,D0KESS2,,,,"(2:35.1872,4.8288)","(4:34.3988,4.6172,35.597,5.0334)",3330,,,Ilemi Triangle,Ilemi Triangle,TRUE,,
5967950,state,all,GD,,GRD,Q769,"(2:-61.6867,12.111)","(4:-61.8026,11.9847,-61.3783,12.5402)",365,Americas,Latin America and the Caribbean,Grenada,Grenada,FALSE,2,"{ ""en"": [ ""Grenada"", ""gd"", ""🇬🇩"", ""GRN"" ] }"
65998863,state,all,AX,,ALA,Q5689,"(2:19.9087,60.1993)","(4:19.2633,59.7333,21.3303,60.6657)",3291,Europe,Northern Europe,Landskapet Åland,Åland Islands,FALSE,4,"{ ""en"": [ ""Åland Islands"", ""Åland"", ""Ahvenanmaa"", ""Aaland"", ""Aaland Islands"", ""Åland region"", ""ax"", ""Aland"", ""🇦🇽"", ""Aland Islands"" ], ""sv"": [ ""Åland"", ""Ahvenanmaa"", ""Landskapet Åland"" ] }"
9638027,state,all,MD,,MDA,Q217,"(2:28.8269,47.0019)","(4:26.6197,45.4689,30.1628,48.4923)",49957,Europe,Eastern Europe,Moldova,Moldova,FALSE,3,"{ ""en"": [ ""Moldova"", ""md"", ""Republic of Moldova"", ""Moldavia"", ""Republica Moldova"", ""🇲🇩"", ""MDA"" ], ""ro"": [ ""Republica Moldova"", ""R. Moldova"", ""Moldova"", ""RM"", ""Rep. Moldova"" ], ""uk"": [ ""Молдова"" ] }"
9310359,state,all,MR,,MRT,Q1025,"(2:-11.4598,21.1503)","(4:-17.0698,14.7202,-4.83,27.3129)",1121076,Africa,Sub-Saharan Africa,موريتانيا,Mauritania,FALSE,3,"{ ""ar"": [ ""موريتانيا"", ""الجمهورية الإسلامية الموريتانية"" ], ""en"": [ ""Mauritania"", ""Islamic Republic of Mauritania"", ""Muritanya"", ""Agawej"", ""Gànnaar"", ""Murutaane"", ""Moritani"", ""mr"", ""🇲🇷"", ""Gannaar"", ""MTN"" ], ""fr"": [ ""Mauritanie"", ""République islamique de Mauritanie"" ] }"
7540850,state,IN,JP,,JPN,Q17,"(2:139.8855,37.6006)","(4:122.9338,24.0457,145.8175,45.523)",473653,Asia,Eastern Asia,日本,Japan,FALSE,5,"{ ""en"": [ ""Japan"", ""State of Japan"", ""Land of the Rising Sun"", ""Nihon"", ""Nippon"", ""JP"", ""Nippon-koku"", ""Nihon-koku"", ""JA"", ""JPN"", ""🇯🇵"", ""jp"", ""JAP"", ""🗾"" ], ""ja"": [ ""日本"", ""日本国"", ""にほん"", ""にほんこく"", ""にっぽん"", ""にっぽんこく"" ] }"
11538606,state,all,PE,,PER,Q419,"(2:-75.8061,-9.3155)","(4:-81.32850000000001,-18.3517,-68.6521,-0.0389)",1324621,Americas,Latin America and the Caribbean,Perú,Peru,FALSE,4,"{ ""en"": [ ""Peru"", ""pe"", ""Republic of Peru"", ""República del Perú"", ""🇵🇪"", ""Republica del Peru"" ], ""es"": [ ""Perú"", ""República del Perú"", ""Peru"", ""Republica del Peru"", ""pe"" ], ""qu"": [ ""Piruw"" ] }"
69635,state,all,AF,,AFG,Q889,"(2:65.7792,34.0569)","(4:60.4734,29.3778,74.8857,38.4911)",774224,Asia,Southern Asia,افغانستان,Afghanistan,FALSE,5,"{ ""en"": [ ""Afghanistan"", ""af"", ""🇦🇫"", ""Islamic Republic of Afghanistan"", ""AFG"" ], ""fa"": [ ""افغانستان"" ], ""ps"": [ ""افغانستان"" ] }"
1839121,state,all,BA,,BIH,Q225,"(2:17.9371,43.9344)","(4:15.7212,42.5605,19.6235,45.2764)",71632,Europe,Southern Europe,Bosna i Hercegovina,Bosnia and Herzegovina,FALSE,1,"{ ""bs"": [ ""Bosna i Hercegovina"", ""BiH"", ""BH"", ""Bosna"" ], ""en"": [ ""Bosnia and Herzegovina"", ""Bosnia-Herzegovina"", ""Bosnia"", ""BiH"", ""Bosnia & Herzegovina"", ""B&H"", ""🇧🇦"", ""ba"", ""BIH"" ], ""hr"": [ ""Bosna i Hercegovina"", ""BiH"", ""BH"", ""Bosna"" ] }"
3412007,dependent territory,all,CC,AU,CCK,Q36004,"(2:96.83029999999999,-12.171)","(4:96.8168,-12.2092,96.9295,-11.8146)",14,Oceania,Australia and New Zealand,Cocos (Keeling) Islands,Cocos (Keeling) Islands,FALSE,1,"{ ""en"": [ ""Cocos Islands"", ""Cocos Islands"", ""Keeling Islands"", ""Territory of the Cocos (Keeling) Islands"", ""cc"", ""🇨🇨"" ], ""ms"": [ ""Kepulauan Cocos"" ] }"
1314852,state,all,BY,,BLR,Q184,"(2:27.883,53.7747)","(4:23.1783,51.2322,32.7763,56.1721)",347178,Europe,Eastern Europe,Беларусь,Belarus,FALSE,1,"{ ""be"": [ ""Беларусь"", ""Рэспубліка Беларусь"", ""Рэспу́бліка Белару́сь"" ], ""en"": [ ""Belarus"", ""🇧🇾"", ""White Russia"", ""White Ruthenia"", ""Republic of Belarus"", ""by"", ""Byeloruss"", ""BLR"", ""Bielorussia"", ""Belorussia"", ""Byelorussia"" ], ""ru"": [ ""Белоруссия"", ""Беларусь"", ""Белая Русь"", ""Республика Беларусь"", ""РБ"" ] }"
1774068,disputed area,JP,D0KESS2,,,,"(2:35.1872,4.8288)","(4:34.3988,4.6172,35.597,5.0334)",3330,,,Ilemi Triangle,Ilemi Triangle,TRUE,,
987636,disputed area,JP,D0CNIN1,,,,"(2:76.45740000000001,35.9527)","(4:75.932,35.462,77.5187,36.4396)",5941,,,Trans-Karakoram Tract,Trans-Karakoram Tract,TRUE,,
12062909,state,all,RO,,ROU,Q218,"(2:24.2311,45.9908)","(4:20.262,43.6188,29.7153,48.2654)",341465,Europe,Eastern Europe,România,Romania,FALSE,1,"{ ""en"": [ ""Romania"", ""Roumania"", ""Rumania"", ""România"", ""ro"", ""🇷🇴"" ], ""fr"": [ ""Roumanie"" ], ""ro"": [ ""România"", ""Romania"", ""ro"", ""🇷🇴"" ] }"
791028,disputed area,JP,D0CNIN9,,,,"(2:80.02800000000001,30.7827)","(4:79.69880000000001,30.5589,80.24930000000001,31.0058)",942,,,Lapthal-Bara Hoti disputed area,Lapthal-Bara Hoti disputed area,TRUE,,
14684378,state,all,TH,,THA,Q869,"(2:101.6544,13.1506)","(4:97.34350000000001,5.612,105.6367,20.4644)",541799,Asia,South-eastern Asia,ประเทศไทย,Thailand,FALSE,3,"{ ""en"": [ ""Thailand"", ""Kingdom of Thailand"", ""th"", ""Siam"", ""🇹🇭"", ""Land of Smiles"", ""THA"" ], ""th"": [ ""ประเทศไทย"", ""Thailand"", ""ไทยแลนด์"", ""ราชอาณาจักรไทย"", ""Kingdom of Thailand"", ""เมืองไทย"" ] }"
7934197,state,IN,XK,,XKS,Q1246,"(2:20.9131,42.5637)","(4:20.0164,41.8511,21.7907,43.2681)",14823,Europe,Southern Europe,Kosovë - Косово,Kosovo,FALSE,2,"{ ""en"": [ ""Kosovo"", ""Republic of Kosovo"", ""XK"", ""KOS"", ""XKX"", ""KV"", ""🇽🇰"" ], ""sq"": [ ""Kosovë"", ""Republika e Kosovës"", ""RKS"", ""KS"", ""Kosova"" ] }"
9244822,dependent territory,all,MQ,FR,MTQ,Q17054,"(2:-61.0154,14.6366)","(4:-61.2288,14.3887,-60.8101,14.8782)",1147,Americas,Latin America and the Caribbean,Martinique,Martinique,FALSE,7,"{ ""en"": [ ""Martinique"", ""🇲🇶"", ""MQ"" ], ""fr"": [ ""Martinique"", ""972"" ] }"
6164571,state,all,GT,,GTM,Q774,"(2:-90.29559999999999,15.7886)","(4:-92.22490000000001,13.7402,-88.2325,17.8166)",113759,Americas,Latin America and the Caribbean,Guatemala,Guatemala,FALSE,3,"{ ""en"": [ ""Guatemala"", ""gt"", ""🇬🇹"", ""Republic of Guatemala"", ""GUA"" ], ""es"": [ ""Guatemala"", ""República de Guatemala"", ""Republica de Guatemala"" ] }"
7934197,state,JP,XK,,XKS,Q1246,"(2:20.9131,42.5637)","(4:20.0164,41.8511,21.7907,43.2681)",14823,Europe,Southern Europe,Kosovë - Косово,Kosovo,FALSE,2,"{ ""en"": [ ""Kosovo"", ""Republic of Kosovo"", ""XK"", ""KOS"", ""XKX"", ""KV"", ""🇽🇰"" ], ""sq"": [ ""Kosovë"", ""Republika e Kosovës"", ""RKS"", ""KS"", ""Kosova"" ] }"
1642529,state,US,BT,,BTN,Q917,"(2:90.3415,27.473)","(4:88.7683,26.6948,92.124,28.2458)",43846,Asia,Southern Asia,འབྲུགཡུལ་,Bhutan,FALSE,5,"{ ""dz"": [ ""འབྲུག་ཡུལ་"", ""འབྲུགཡུལ་་"" ], ""en"": [ ""Bhutan"", ""Kingdom of Bhutan"", ""bt"", ""🇧🇹"", ""BHU"" ], ""ne"": [ ""भुटान"" ] }"
3739698,state,all,CR,,CRI,Q800,"(2:-83.6675,9.6333)","(4:-87.102,5.4991,-82.5514,11.2197)",52305,Americas,Latin America and the Caribbean,Costa Rica,Costa Rica,FALSE,3,"{ ""en"": [ ""Costa Rica"", ""Republic of Costa Rica"", ""🇨🇷"", ""cr"", ""CRI"", ""CRC"" ], ""es"": [ ""Costa Rica"", ""CR"", ""República de Costa Rica"", ""CRC"" ] }"
7540850,state,JP,JP,,JPN,Q17,"(2:139.8855,37.6006)","(4:122.9338,24.0457,145.8175,45.523)",473653,Asia,Eastern Asia,日本,Japan,FALSE,5,"{ ""en"": [ ""Japan"", ""State of Japan"", ""Land of the Rising Sun"", ""Nihon"", ""Nippon"", ""JP"", ""Nippon-koku"", ""Nihon-koku"", ""JA"", ""JPN"", ""🇯🇵"", ""jp"", ""JAP"", ""🗾"" ], ""ja"": [ ""日本"", ""日本国"", ""にほん"", ""にほんこく"", ""にっぽん"", ""にっぽんこく"" ] }"
4001848,state,all,CZ,,CZE,Q213,"(2:15.5271,49.8197)","(4:12.0906,48.552,18.8592,51.0557)",121734,Europe,Eastern Europe,Česko,Czechia,FALSE,1,"{ ""cs"": [ ""Česko"", ""ČR"", ""cz"", ""cze"", ""Česká republika"", ""Czechia"" ], ""de"": [ ""Tschechien"", ""Tschechische Republik"" ], ""en"": [ ""Czech Republic"", ""CZR"", ""cz"", ""Česko"", ""Česká republika"", ""ČR"", ""🇨🇿"", ""cze"", ""CZE"", ""Czechia"" ], ""sk"": [ ""Česko"", ""Česká republika"" ] }"
4263996,state,all,DM,,DMA,Q784,"(2:-61.3411,15.4238)","(4:-61.4801,15.2074,-61.2402,15.6399)",786,Americas,Latin America and the Caribbean,Dominica,Dominica,FALSE,4,"{ ""en"": [ ""Dominica"", ""Commonwealth of Dominica"", ""The Commonwealth of Dominica"", ""🇩🇲"", ""dm"", ""DOM"", ""DMA"" ] }"
5312728,dependent territory,all,TF,FR,ATF,Q129003,"(2:70.21769999999999,-49.1974)","(4:40.3259,-50.0213,77.59569999999999,-11.5678)",11927,Africa,Sub-Saharan Africa,Terres australes et antarctiques françaises,French Southern and Antarctic Lands,FALSE,7,"{ ""en"": [ ""French Southern and Antarctic Lands"", ""tf"", ""🇹🇫"", ""French Southern Territories"" ], ""fr"": [ ""Terres australes et antarctiques françaises"", ""TAAF"", ""Terres Australes Françaises"", ""Terres australes et antarctiques francaises"", ""984"" ] }"
15405287,state,all,UG,,UGA,Q1036,"(2:32.7123,1.3729)","(4:29.5607,-1.4873,35.0197,4.2266)",243407,Africa,Sub-Saharan Africa,Uganda,Uganda,FALSE,6,"{ ""en"": [ ""Uganda"", ""Republic of Uganda"", ""ug"", ""🇺🇬"", ""UGA"" ], ""lg"": [ ""Yuganda"" ], ""sw"": [ ""Uganda"", ""Jamhuri ya Uganda"" ] }"
15470822,state,all,UA,,UKR,Q212,"(2:31.0081,48.5409)","(4:22.1376,44.3866,40.2256,52.3794)",922375,Europe,Eastern Europe,Україна,Ukraine,FALSE,5,"{ ""en"": [ ""Ukraine"", ""UA"", ""UKR"", ""ua"", ""Ukrainia"", ""🇺🇦"" ], ""ru"": [ ""Украина"" ], ""uk"": [ ""Україна"", ""Вкраїна"", ""🇺🇦"", ""ua"" ] }"
7671921,state,all,JO,,JOR,Q810,"(2:36.3091,31.3051)","(4:34.9581,29.1896,39.3001,33.3746)",104752,Asia,Western Asia,الأردن,Jordan,FALSE,5,"{ ""ar"": [ ""الأردن"", ""المملكة الأردنيّة الهاشميّة"", ""المملكة الأردنية الهاشمية"" ], ""en"": [ ""Jordan"", ""Hashemite Kingdom of Jordan"", ""JO"", ""JOR"", ""jo"", ""Kingdom of Jordan"", ""🇯🇴"" ] }"
14880988,dependent territory,all,TK,NZ,TKL,Q36823,"(2:-171.7801,-9.175700000000001)","(4:-172.5208,-9.444000000000001,-171.1814,-8.532)",15,Oceania,Polynesia,Tokelau,Tokelau,FALSE,3,"{ ""en"": [ ""Tokelau"", ""tk"", ""🇹🇰"" ] }"
12718324,state,all,WS,,WSM,Q683,"(2:-172.439,-13.6221)","(4:-172.8041,-14.0772,-171.3978,-13.4398)",2956,Oceania,Polynesia,Samoa,Samoa,FALSE,3,"{ ""en"": [ ""Samoa"", ""Western Samoa"", ""Independent State of Samoa"", ""ws"", ""🇼🇸"" ], ""sm"": [ ""Sāmoa"" ] }"
987636,disputed area,US,D0CNIN1,,,,"(2:76.45740000000001,35.9527)","(4:75.932,35.462,77.5187,36.4396)",5941,,,Trans-Karakoram Tract,Trans-Karakoram Tract,TRUE,,
659956,disputed area,all,D0JPKR1,,,,"(2:131.8648,37.242)","(4:131.8614,37.238,131.8728,37.2477)",0,,,Liancourt Rocks,Liancourt Rocks,TRUE,,
2691110,state,all,CA,,CAN,Q16,"(2:-116.9186,60.2273)","(4:-141.016,41.6814,-52.6194,83.13679999999999)",25442850,Americas,Northern America,Canada,Canada,FALSE,6,"{ ""en"": [ ""Canada"", ""Dominion of Canada"", ""British North America"", ""CAN"", ""CA"", ""ca"", ""CDN"", ""🇨🇦"" ], ""fr"": [ ""Canada"", ""CA"" ] }"
1118708,disputed area,US,D0CNIN3,,,,"(2:79.3519,32.8792)","(4:79.1397,32.5191,79.5613,33.2379)",1768,,,Demchok disputed area,Demchok disputed area,TRUE,,
3870771,state,all,CU,,CUB,Q241,"(2:-77.8291,21.5254)","(4:-84.9521,19.8262,-74.1314,23.2767)",120464,Americas,Latin America and the Caribbean,Cuba,Cuba,FALSE,3,"{ ""en"": [ ""Cuba"", ""Republic of Cuba"", ""cu"", ""🇨🇺"", ""CUB"" ], ""es"": [ ""Cuba"", ""República de Cuba"", ""Republica de Cuba"" ] }"
11473082,state,all,PY,,PRY,Q733,"(2:-58.4145,-23.4993)","(4:-62.6415,-27.5759,-54.2591,-19.2928)",436149,Americas,Latin America and the Caribbean,Paraguay,Paraguay,FALSE,6,"{ ""en"": [ ""Paraguay"", ""Republic of Paraguay"", ""py"", ""🇵🇾"", ""Heart of South America"" ], ""es"": [ ""Paraguay"", ""República del Paraguay"", ""Republica del Paraguay"" ], ""gn"": [ ""Paraguái"" ] }"
1052704,state,all,BS,,BHS,Q778,"(2:-78.0455,24.7032)","(4:-79.30549999999999,20.912,-72.7118,27.2629)",14194,Americas,Latin America and the Caribbean,Bahamas,Bahamas,FALSE,1,"{ ""en"": [ ""Bahamas"", ""Commonwealth of the Bahamas"", ""bs"", ""🇧🇸"", ""The Bahamas"", ""Bahama Islands"" ] }"
13570254,state,all,SO,,SOM,Q1045,"(2:46.8166,5.1742)","(4:40.9924,-1.6627,51.4156,11.9893)",643601,Africa,Sub-Saharan Africa,الصومال,Somalia,FALSE,2,"{ ""ar"": [ ""الصومال"", ""صومال"", ""جمهورية الصومال"", ""جمهورية الصومال الديموقراطية"" ], ""en"": [ ""Somalia"", ""Federal Republic of Somalia"", ""aṣ-Ṣūmāl"", ""Soomaaliya"", ""so"", ""🇸🇴"", ""SOM"" ], ""so"": [ ""Soomaaliya"", ""Soomaaliyeey toosoo"" ] }"
4657219,state,all,ER,,ERI,Q986,"(2:38.0893,15.2)","(4:36.4282,12.3629,43.1588,17.9992)",126770,Africa,Sub-Saharan Africa,Eritrea - إريتريا,Eritrea,FALSE,3,"{ ""en"": [ ""Eritrea"", ""State of Eritrea"", ""Ertrā"", ""Iritriyā"", ""er"", ""🇪🇷"", ""ERI"", ""IRI"" ], ""ti"": [ ""ኤርትራ"", ""ሃገረ ኤርትራ"", ""ኤርትራ ኤርትራ ኤርትራ"" ] }"
15601741,state,all,GB,,GBR,Q145,"(2:-2.1838,54.5475)","(4:-8.6501,49.8668,1.763,60.8608)",415318,Europe,Northern Europe,United Kingdom,United Kingdom,FALSE,6,"{ ""en"": [ ""United Kingdom"", ""🇬🇧"", ""UK"", ""United Kingdom of Great Britain and Northern Ireland"", ""U.K."", ""GBR"" ], ""fr"": [ ""Royaume-Uni"", ""UK"", ""Royaume-Uni de Grande-Bretagne et d’Irlande du Nord"", ""Royaume Uni"", ""GB"", ""GBR"" ] }"
725492,disputed area,IN,D0CNJPTW1,,,,"(2:123.4764,25.743)","(4:123.4579,25.7204,124.5603,25.9289)",6,,,Senkaku Islands,Senkaku Islands,TRUE,,
2101354,dependent territory,all,IO,UK,IOT,Q43448,"(2:72.4716,-7.3392)","(4:71.23739999999999,-7.4446,72.4957,-5.236)",65,Africa,Sub-Saharan Africa,British Indian Ocean Territory,British Indian Ocean Territory,FALSE,6,"{ ""en"": [ ""British Indian Ocean Territory"", ""io"", ""🇮🇴"" ] }"
8196231,state,all,LV,,LVA,Q211,"(2:24.4397,56.9003)","(4:20.9706,55.6744,28.2422,58.0856)",117706,Europe,Northern Europe,Latvija,Latvia,FALSE,4,"{ ""en"": [ ""Latvia"", ""Republic of Latvia"", ""Latvian Republic"", ""lv"", ""Latvija"", ""🇱🇻"", ""LAT"", ""LVA"" ], ""lv"": [ ""Latvija"", ""Latvijas Republika"", ""LAT"", ""LVA"" ], ""ru"": [ ""Латвия"", ""Latvija"", ""Латвийская Республика"", ""Республика Латвия"" ] }"
15339747,state,all,TV,,TUV,Q672,"(2:178.6758,-7.4786)","(4:176.0588,-10.7919,179.4781,-5.6425)",38,Oceania,Polynesia,Tuvalu,Tuvalu,FALSE,1,"{ ""en"": [ ""Tuvalu"", ""Ellice Islands"", ""tv"", ""🇹🇻"", ""TUV"" ] }"
1642996,disputed area,IN,D0GFSR1,,,,"(2:-54.1343,2.7239)","(4:-54.6024,2.1443,-53.9703,3.3029)",3444,,,French Guiana–Suriname disputed area,French Guiana–Suriname disputed area,TRUE,,
135668,disputed area,all,D0SDSS1,,,,"(2:28.4279,9.716799999999999)","(4:27.833,9.3348,29.0004,10.1667)",10928,,,Abyei,Abyei,TRUE,,
2363892,disputed area,IN,D0CNTWVN1,,,,"(2:111.7015,16.2212)","(4:111.1905,15.7749,112.7456,17.1141)",489,,,Paracel Islands,Paracel Islands,TRUE,,
201204,disputed area,all,D0EGSD2,,,,"(2:33.6971,21.8656)","(4:33.1724,21.7249,34.0814,22.0065)",2216,,,Bir Tawil,Bir Tawil,TRUE,,
9572425,state,all,FM,,FSM,Q702,"(2:158.2402,6.8852)","(4:137.4253,1.0253,163.0356,10.0906)",785,Oceania,Micronesia,Federated States of Micronesia,Federated States of Micronesia,FALSE,5,"{ ""en"": [ ""Federated States of Micronesia"", ""Micronesia"", ""FSM"", ""fm"", ""Fed. Sts. Micronesia"", ""Fed. Sts. of Micronesia"", ""Federated States of Micronesia, FSM"", ""🇫🇲"" ] }"
13832400,state,CN,SS,,SSD,Q958,"(2:29.1116,7.8795)","(4:24.1507,3.4803,35.9353,12.2322)",639959,Africa,Sub-Saharan Africa,South Sudan,South Sudan,FALSE,1,"{ ""ar"": [ ""جنوب السودان"", ""جمهورية جنوب السودان"", ""قائمة جزر جنوب السودان"", ""بانتيو (مدينة)"", ""يامبيو (مدينة)"", ""رمبيك (مدينة)"", ""أويل (مدينة)"", ""اويل"", ""جوبا (مدينة)"", ""ملكال (مدينة)"", ""كودوك"", ""فاشودا"", ""فاشودة"", ""ياي"", ""عاصمة جنوب السودان"" ], ""en"": [ ""South Sudan"", ""Republic of South Sudan"", ""Southern Sudan"", ""ss"", ""🇸🇸"", ""SSD"" ] }"
8130686,state,all,LA,,LAO,Q819,"(2:102.1592,18.2605)","(4:100.0818,13.9098,107.635,22.5049)",244136,Asia,South-eastern Asia,ປະເທດລາວ,Laos,FALSE,1,"{ ""en"": [ ""Laos"", ""Lao People's Democratic Republic"", ""la"", ""Lao PDR"", ""🇱🇦"", ""LAO"" ], ""lo"": [ ""ປະເທດລາວ"", ""ສາທາລະນະລັດ ປະຊາທິປະໄຕ ປະຊາຊົນລາວ"" ] }"
4788293,state,all,ET,,ETH,Q115,"(2:38.9667,9.196999999999999)","(4:32.9975,3.3961,47.9878,14.8942)",1150612,Africa,Sub-Saharan Africa,Ethiopia,Ethiopia,FALSE,4,"{ ""am"": [ ""ኢትዮጵያ"" ], ""en"": [ ""Ethiopia"", ""Federal Democratic Republic of Ethiopia"", ""et"", ""🇪🇹"", ""ETH"" ], ""om"": [ ""Itoophiyaa"" ] }"
1839604,disputed area,JP,D0KESS3,,,,"(2:35.6763,4.6062)","(4:35.597,4.5877,35.7068,4.6247)",24,,,Ilemi Triangle,Ilemi Triangle,TRUE,,
1053172,disputed area,JP,D0CNIN2,,,,"(2:79.1217,34.697)","(4:77.9097,33.3858,80.4217,35.9879)",37463,,,Aksai Chin disputed area,Aksai Chin disputed area,TRUE,,
1839604,disputed area,US,D0KESS3,,,,"(2:35.6763,4.6062)","(4:35.597,4.5877,35.7068,4.6247)",24,,,Ilemi Triangle,Ilemi Triangle,TRUE,,
2167284,disputed area,all,D0AEIR2,,,,"(2:55.3051,26.2649)","(4:55.2855,26.2475,55.3228,26.2821)",12,,,Greater Tunb Island,Greater Tunb Island,TRUE,,
14815449,state,all,TG,,TGO,Q945,"(2:1.0401,8.6357)","(4:-0.1438,6.1126,1.8091,11.1373)",57966,Africa,Sub-Saharan Africa,Togo,Togo,FALSE,3,"{ ""ee"": [ ""Togo"" ], ""en"": [ ""Togo"", ""Togolese Republic"", ""République Togolaise"", ""tg"", ""🇹🇬"", ""Republique Togolaise"", ""TOG"" ], ""fr"": [ ""Togo"", ""République togolaise"" ] }"
9900184,dependent territory,all,MS,UK,MSR,Q13353,"(2:-62.1928,16.7492)","(4:-62.2417,16.6747,-62.1446,16.8238)",106,Americas,Latin America and the Caribbean,Montserrat,Montserrat,FALSE,6,"{ ""en"": [ ""Montserrat"", ""ms"", ""🇲🇸"" ] }"
1970676,disputed area,US,D0ILPS1,,,,"(2:35.2419,31.7959)","(4:35.1507,31.7092,35.2654,31.8829)",83,,,East Jerusalem,East Jerusalem,TRUE,,
1839604,disputed area,IN,D0KESS3,,,,"(2:35.6763,4.6062)","(4:35.597,4.5877,35.7068,4.6247)",24,,,Ilemi Triangle,Ilemi Triangle,TRUE,,
7802995,state,CN,KE,,KEN,Q114,"(2:37.4758,-0.0219)","(4:33.9216,-4.6913,41.9109,4.6327)",587115,Africa,Sub-Saharan Africa,Kenya,Kenya,FALSE,5,"{ ""en"": [ ""Kenya"", ""Republic of Kenya"", ""KE"", ""KEN"", ""ke"", ""🇰🇪"" ], ""ki"": [ ""Kenya"" ], ""sw"": [ ""Kenya"", ""Jamhuri ya Kenya"" ] }"
6885481,state,US,IN,,IND,Q668,"(2:79.5556,22.5605)","(4:68.17449999999999,6.756,97.3954,35.6733)",3484254,Asia,Southern Asia,India,India,FALSE,1,"{ ""en"": [ ""India"", ""Bharat"", ""Hindustan"", ""Bharatvarsh"", ""in"", ""IN"", ""Republic of India"", ""🇮🇳"", ""IND"" ], ""hi"": [ ""भारत"", ""हिंदुस्तान"", ""भारतवर्ष"", ""इंडिया"", ""भारत गणराज्य"", ""इण्डिया"", ""हिन्दोस्तान"", ""हिन्दुस्तान"", ""आर्यवर्त"" ] }"
2756660,state,all,CV,,CPV,Q1011,"(2:-23.6351,15.1204)","(4:-25.3616,14.8021,-22.6572,17.2053)",4305,Africa,Sub-Saharan Africa,Cabo Verde,Cape Verde,FALSE,1,"{ ""en"": [ ""Cape Verde"", ""Republic of Cape Verde"", ""Cabo Verde"", ""CV"", ""CPV"", ""cv"", ""🇨🇻"" ], ""pt"": [ ""Cabo Verde"", ""República de Cabo Verde"" ], ""kea"": [ ""Kabu Verdi"", ""Kauberdi"", ""Kab Verd"" ] }"
2887721,state,all,CF,,CAF,Q929,"(2:20.6627,6.638)","(4:14.4152,2.2227,27.4536,11.017)",628505,Africa,Sub-Saharan Africa,Centrafrique,Central African Republic,FALSE,5,"{ ""en"": [ ""Central African Republic"", ""CAR"", ""Ködörösêse tî Bêafrîka"", ""République centrafricaine"", ""Centrafrique"", ""cf"", ""🇨🇫"", ""Republique centrafricaine"", ""CAF"" ], ""fr"": [ ""République centrafricaine"", ""Centrafrique"" ], ""sg"": [ ""Ködörösêse tî Bêafrîka"" ] }"
8720528,state,all,MK,,MKD,Q221,"(2:21.7483,41.6182)","(4:20.453,40.8535,23.034,42.3741)",34040,Europe,Southern Europe,Северна Македонија,North Macedonia,FALSE,5,"{ ""en"": [ ""North Macedonia"", ""Republic of North Macedonia"", ""MKD"", ""FYROM"", ""FYR Macedonia"", ""Macedonia"", ""Former Yugoslav Republic of Macedonia"", ""Republic of Macedonia"", ""🇲🇰"", ""mk"" ], ""mk"": [ ""Македонија"", ""Република Северна Македонија"", ""Северна Македонија"", ""Република Македонија"" ], ""sq"": [ ""Maqedonia e Veriut"", ""Maqedonia"", ""IRJM"", ""Ish Republika Jugosllave e Maqedonisë"", ""Republika e Maqedonisë së Veriut"" ] }"
7999611,state,all,KW,,KWT,Q817,"(2:47.4272,29.3169)","(4:46.558,28.5235,48.7781,30.1033)",19829,Asia,Western Asia,الكويت,Kuwait,FALSE,2,"{ ""ar"": [ ""الكويت"", ""دولة الكويت"" ], ""en"": [ ""Kuwait"", ""🇰🇼"", ""State of Kuwait"", ""Dawlat al-Kuwait"", ""kw"", ""KUW"" ] }"
5509199,state,all,GE,,GEO,Q230,"(2:43.6774,42.3325)","(4:40.0068,41.0553,46.7365,43.5863)",93812,Asia,Western Asia,საქართველო,Georgia,FALSE,5,"{ ""en"": [ ""Georgia"", ""Republic of Georgia"", ""GE"", ""🇬🇪"", ""GEO"" ], ""ka"": [ ""საქართველო"", ""საქართველოს რესპუბლიკა"" ], ""xmf"": [ ""საქორთუო"" ] }"
6623328,state,all,HM,,HMD,Q131198,"(2:73.5286,-53.0783)","(4:72.5827,-53.1949,73.8764,-52.9022)",612,Oceania,Australia and New Zealand,Heard and McDonald Islands,Heard and McDonald Islands,FALSE,1,"{ ""en"": [ ""Heard Island and McDonald Islands"", ""hm"", ""Territory of Heard Island and McDonald Islands"", ""HIMI"", ""🇭🇲"", ""Heard and McDonald Islands"" ] }"
725492,disputed area,US,D0CNJPTW1,,,,"(2:123.4764,25.743)","(4:123.4579,25.7204,124.5603,25.9289)",6,,,Senkaku Islands,Senkaku Islands,TRUE,,
1511924,disputed area,US,D0INPK1,,,,"(2:75.4564,34.957)","(4:72.5081,32.7649,77.1204,37.0919)",97311,,,Pakistan-administered Kashmir,Pakistan-administered Kashmir,TRUE,,
331777,state,all,AD,,AND,Q228,"(2:1.5893,42.5425)","(4:1.4138,42.4288,1.7865,42.6549)",629,Europe,Southern Europe,Andorra,Andorra,FALSE,1,"{ ""ca"": [ ""Andorra"", ""el país dels Pirineus"", ""Principat d'Andorra"", ""les Valls d'Andorra"" ], ""en"": [ ""Andorra"", ""Principality of Andorra"", ""Principality of the Valleys of Andorra"", ""ad"", ""🇦🇩"", ""AND"" ], ""es"": [ ""Andorra"", ""Principado de Andorra"" ] }"
2036212,disputed area,CN,D0INNP1,,,,"(2:80.7744,30.3206)","(4:80.5254,30.1691,81.04519999999999,30.4716)",468,,,Kalapani-Lympiadhura disputed area,Kalapani-Lympiadhura disputed area,TRUE,,
6361181,state,all,GW,,GNB,Q1007,"(2:-14.5964,11.805)","(4:-16.7153,10.8643,-13.6342,12.6855)",35004,Africa,Sub-Saharan Africa,Guiné-Bissau,Guinea-Bissau,FALSE,3,"{ ""en"": [ ""Guinea-Bissau"", ""Republic of Guinea-Bissau"", ""🇬🇼"", ""gw"", ""GBS"" ], ""pt"": [ ""Guiné-Bissau"", ""República da Guiné-Bissau"" ] }"
7802995,state,JP,KE,,KEN,Q114,"(2:37.4758,-0.0219)","(4:33.9216,-4.6913,41.9109,4.6327)",587115,Africa,Sub-Saharan Africa,Kenya,Kenya,FALSE,5,"{ ""en"": [ ""Kenya"", ""Republic of Kenya"", ""KE"", ""KEN"", ""ke"", ""🇰🇪"" ], ""ki"": [ ""Kenya"" ], ""sw"": [ ""Kenya"", ""Jamhuri ya Kenya"" ] }"
11997372,dependent territory,all,RE,FR,REU,Q17070,"(2:55.537,-21.1313)","(4:55.2163,-21.3899,55.8371,-20.8718)",2707,Africa,Sub-Saharan Africa,La Réunion,Reunion,FALSE,7,"{ ""en"": [ ""Réunion"", ""Reunion"", ""La Réunion"", ""La Reunion"", ""re"", "".re"", ""🇷🇪"" ], ""fr"": [ ""La Réunion"", ""974"", ""Réunion"", ""Île de La Réunion"", ""île de la Réunion"" ], ""ta"": [ ""ரீயூனியன்"", ""ரெயூனின்"" ] }"
1576987,dependent territory,all,BM,UK,BMU,Q23635,"(2:-64.77370000000001,32.3019)","(4:-64.8871,32.247,-64.64660000000001,32.3908)",64,Americas,Northern America,Bermuda,Bermuda,FALSE,6,"{ ""en"": [ ""Bermuda"", ""Somers Isles"", ""Bermuda Islands"", ""Atlantic\/Bermuda"", ""Bermudian Islands"", ""Bermoothes"", ""Virgineola"", ""The Somers Isles"", ""Summers' Isles"", ""Territory of Bermuda"", ""Bermudas"", ""Somers Islands"", ""Colony of Bermuda"", ""Devil's Isles"", ""Summer's Isles"", ""Isle of Devils"", ""bm"", ""🇧🇲"" ] }"
4132923,state,all,DK,,DNK,Q35,"(2:9.314399999999999,55.9565)","(4:8.0725,54.5591,15.1974,57.7522)",76801,Europe,Northern Europe,Danmark,Denmark,FALSE,4,"{ ""da"": [ ""Danmark"", ""DK"", ""dk"" ], ""de"": [ ""Dänemark"" ], ""en"": [ ""Denmark"", ""DK"", ""Danmark"", ""DNK"", ""DEK"", ""dk"", ""Denmark proper"", ""metropolitan Denmark"", ""🇩🇰"", ""DEN"", ""TAN"" ], ""sv"": [ ""Danmark"", ""Danska kungariket"", ""DK"", ""Kungariket Danmark"", ""Kungadömet Danmark"", ""Kongeriget Danmark"", ""Danska kungadömet"" ] }"
7802995,state,IN,KE,,KEN,Q114,"(2:37.4854,0.1774)","(4:33.9216,-4.6913,41.9109,5.0334)",590477,Africa,Sub-Saharan Africa,Kenya,Kenya,FALSE,5,"{ ""en"": [ ""Kenya"", ""Republic of Kenya"", ""KE"", ""KEN"", ""ke"", ""🇰🇪"" ], ""ki"": [ ""Kenya"" ], ""sw"": [ ""Kenya"", ""Jamhuri ya Kenya"" ] }"
3674157,state,all,CK,,COK,Q26988,"(2:-159.7783,-21.2339)","(4:-165.8794,-21.9591,-157.3206,-8.9147)",275,Oceania,Polynesia,Cook Islands,Cook Islands,FALSE,3,"{ ""en"": [ ""Cook Islands"", ""ck"", ""🇨🇰"", ""COK"" ] }"
5705811,dependent territory,all,GI,UK,GIB,Q1410,"(2:-5.3482,36.134)","(4:-5.3677,36.1089,-5.3386,36.159)",8,Europe,Southern Europe,Gibraltar,Gibraltar,FALSE,6,"{ ""en"": [ ""Gibraltar"", ""gi"", ""Gib"", ""The Rock of Gibraltar"", ""🇬🇮"" ], ""es"": [ ""Gibraltar"" ] }"
13504706,state,all,SB,,SLB,Q685,"(2:160.1487,-9.598699999999999)","(4:155.5122,-12.3083,170.1925,-5.0269)",28968,Oceania,Melanesia,Solomon Islands,Solomon Islands,FALSE,1,"{ ""en"": [ ""Solomon Islands"", ""sb"", ""🇸🇧"", ""SOL"" ] }"
1380372,state,all,BE,,BEL,Q31,"(2:4.8641,50.5117)","(4:2.5454,49.4972,6.4082,51.5051)",48408,Europe,Western Europe,Belgique - België · Belgien,Belgium,FALSE,3,"{ ""de"": [ ""Belgien"" ], ""en"": [ ""Belgium"", ""Kingdom of Belgium"", ""BEL"", ""be"", ""🇧🇪"" ], ""fr"": [ ""Belgique"", ""Royaume de Belgique"", ""BE"" ], ""nl"": [ ""België"", ""Koninkrijk België"", ""Belgie"", ""BE"", ""BEL"" ] }"
2232820,disputed area,US,D0INNP2,,,,"(2:83.8659,27.3922)","(4:83.8167,27.3464,83.9084,27.438)",37,,,Susta disputed area,Susta disputed area,TRUE,,
1905140,disputed area,IN,D0KESS4,,,,"(2:35.7462,4.6551)","(4:35.703,4.6247,35.7813,4.6854)",47,,,Ilemi Triangle,Ilemi Triangle,TRUE,,
1905140,disputed area,US,D0KESS4,,,,"(2:35.7462,4.6551)","(4:35.703,4.6247,35.7813,4.6854)",47,,,Ilemi Triangle,Ilemi Triangle,TRUE,,
2101748,disputed area,all,D0AEIR1,,,,"(2:55.0306,25.8779)","(4:55.0093,25.8558,55.0567,25.9)",14,,,Abu Musa Island,Abu Musa Island,TRUE,,
10686628,state,all,NG,,NGA,Q1033,"(2:7.99,9.104900000000001)","(4:2.6732,4.2707,14.6784,13.8789)",930279,Africa,Sub-Saharan Africa,Nigeria,Nigeria,FALSE,3,"{ ""en"": [ ""Nigeria"", ""Federal Republic of Nigeria"", ""🇳🇬"", ""NG"", ""FRN"", ""NGA"", ""NGR"", ""Naija"" ], ""ha"": [ ""Nijeriya"" ], ""ig"": [ ""Naijiria"" ], ""yo"": [ ""Nàìjíríà"", ""Nàìjá"", ""Nigeria"", ""NG"", ""🇳🇬"", ""Orílẹ̀-èdè Olómìniira Aláàpapọ̀ Nàìjíríà"" ] }"
11079852,state,all,OM,,OMN,Q842,"(2:57.0243,20.8862)","(4:52,16.6501,59.8398,26.4049)",331175,Asia,Western Asia,عُمان,Oman,FALSE,1,"{ ""ar"": [ ""سلطنة عمان"", ""عُمان"", ""عمان"", ""سلطنة عُمان"" ], ""en"": [ ""Oman"", ""om"", ""🇴🇲"", ""Sultanate of Oman"" ] }"
1184244,disputed area,JP,D0CNIN4,,,,"(2:78.7079,32.683)","(4:78.6656,32.6564,78.746,32.7097)",18,,,Chumar East disputed area,Chumar East disputed area,TRUE,,
11145394,state,CN,PK,,PAK,Q843,"(2:70.2714,30.6947)","(4:60.8738,23.7046,77.1204,37.0919)",1007923,Asia,Southern Asia,پاكِستان - Pakistan,Pakistan,FALSE,2,"{ ""en"": [ ""Pakistan"", ""🇵🇰"", ""pk"", ""Islamic Republic of Pakistan"" ], ""ps"": [ ""پاکستان"" ], ""sd"": [ ""پاڪستان"", ""اسلامي جمھوريہ پاڪستان"" ], ""ur"": [ ""پاکستان"", ""اسلامی جمہوریہ پاکستان"" ], ""pnb"": [ ""پاکستان"" ] }"
15208670,state,all,TM,,TKM,Q874,"(2:58.902,39.0689)","(4:52.4511,35.1308,66.6922,42.799)",633155,Asia,Central Asia,Türkmenistan,Turkmenistan,FALSE,3,"{ ""en"": [ ""Turkmenistan"", ""Turkmenia"", ""tm"", ""🇹🇲"", ""TKM"" ], ""ru"": [ ""Туркмения"", ""Туркменистан"" ], ""tk"": [ ""Türkmenistan"", ""Türkmenistan \/ Түркменистан"" ] }"
3543159,state,all,KM,,COM,Q970,"(2:43.3307,-11.6527)","(4:43.2291,-12.4221,44.5406,-11.3649)",1720,Africa,Sub-Saharan Africa,Comores - ﺍﻟﻘﻤﺮي - Komori,Comoros,FALSE,2,"{ ""ar"": [ ""جزر القمر"" ], ""en"": [ ""Comoros"", ""Juzur al-Qumur"", ""Juzur al-Qamar"", ""Union of the Comoros"", ""Udzima wa Komori"", ""Union des Comores"", ""al-Ittiḥād al-Qumurī"", ""km"", ""🇰🇲"", ""Massiwa ya komori"", ""ouvoimoja wakomori"", ""COM"" ], ""fr"": [ ""Comores"", ""Union des Comores"" ] }"
16191729,state,all,VN,,VNM,Q881,"(2:107.6937,16.115)","(4:102.1448,7.6024,116.6811,23.3923)",348204,Asia,South-eastern Asia,Việt Nam,Vietnam,FALSE,5,"{ ""en"": [ ""Vietnam"", ""Viet Nam"", ""Socialist Republic of Vietnam"", ""🇻🇳"", ""VN"", ""VIE"" ], ""vi"": [ ""Việt Nam"", ""VN"", ""nước Việt"", ""Việt quốc"", ""đất Việt"", ""nước Việt Nam"", ""quốc gia Việt Nam"", ""Cộng hòa xã hội chủ nghĩa Việt Nam"" ] }"
15732968,state,all,UM,,UMI,Q16645,"(2:166.6495,19.2894)","(4:-176.6238,-0.3805,166.6575,19.3187)",29,Oceania,Micronesia,US Minor Outlying Islands,US Minor Outlying Islands,FALSE,4,"{ ""en"": [ ""United States Minor Outlying Islands"", ""um"", ""US Minor Outlying Islands"", ""U.S. Minor Outlying Islands"", ""🇺🇲"" ] }"
3936309,state,all,CW,,CUW,Q25279,"(2:-69.0407,12.2129)","(4:-69.1623,11.978,-68.6395,12.3924)",451,Americas,Latin America and the Caribbean,Curaçao,Curaçao,FALSE,4,"{ ""en"": [ ""Curaçao"", ""Island Territory of Curaçao"", ""Curacau"", ""Curaçoa"", ""Curaςao"", ""Kòrsou"", ""Korsou"", ""Curocao"", ""ISO 3166-1:CW"", ""CUW"", ""Curazao"", ""Curacao"", ""Country of Curaçao"", ""🇨🇼"", ""CW"" ], ""pap"": [ ""Kòrsou"", ""Kurasoleño"", ""Curacao"", ""Korsou"", ""Corsou"", ""Corsouw"", ""Kórsou"", ""Curaçao"", ""Corsow"" ] }"
16388343,state,all,YE,,YEM,Q805,"(2:47.4901,15.822)","(4:41.9037,12.1081,54.5343,19)",474122,Asia,Western Asia,اليَمَن,Yemen,FALSE,5,"{ ""ar"": [ ""اليمن"", ""الجمهورية اليمنية"" ], ""en"": [ ""Yemen"", ""Republic of Yemen"", ""ye"", ""Rep. Yemen"", ""🇾🇪"", ""YEM"" ] }"
1774068,disputed area,US,D0KESS2,,,,"(2:35.1872,4.8288)","(4:34.3988,4.6172,35.597,5.0334)",3330,,,Ilemi Triangle,Ilemi Triangle,TRUE,,
2429428,disputed area,IN,D0CNTW1,,,,"(2:116.7287,20.7035)","(4:116.7069,20.6972,116.7349,20.7097)",1,,,Pratas Island,Pratas Island,TRUE,,
12456064,state,all,LC,,LCA,Q760,"(2:-60.9776,13.909)","(4:-61.0794,13.708,-60.8728,14.1096)",624,Americas,Latin America and the Caribbean,Saint Lucia,Saint Lucia,FALSE,3,"{ ""en"": [ ""Saint Lucia"", ""lc"", ""St. Lucia"", ""St Lucia"", ""🇱🇨"" ] }"
11800760,state,all,PT,,PRT,Q45,"(2:-8.296200000000001,39.6065)","(4:-31.2694,30.0305,-6.1892,42.1543)",119609,Europe,Southern Europe,Portugal,Portugal,FALSE,1,"{ ""en"": [ ""Portugal"", ""Portuguese Republic"", ""PT"", ""pt"", ""🇵🇹"" ], ""fr"": [ ""Portugal"" ], ""pt"": [ ""Portugal"", ""República Portuguesa"", ""República de Portugal"", ""PT"", ""pt"", ""🇵🇹"" ] }"
2953431,state,all,TD,,TCD,Q657,"(2:18.6422,15.5973)","(4:13.4731,7.4418,24.0016,23.4504)",1329064,Africa,Sub-Saharan Africa,Tchad تشاد,Chad,FALSE,6,"{ ""ar"": [ ""تشاد"", ""جمهورية تشاد"", ""تَشَاد"" ], ""en"": [ ""Chad"", ""Republic of Chad"", ""République du Tchad"", ""جمهورية تشاد"", ""Ǧumhūriyyat Tšād"", ""Tchad"", ""td"", ""🇹🇩"", ""Republique du Tchad"", ""CHA"", ""GUM"" ], ""fr"": [ ""Tchad"", ""République du Tchad"" ] }"